PK,NOMBRE,HORARIO,EQUIPAMIENTO,TRANSPORTE,ACCESIBILIDAD,CONTENT-URL,NOMBRE-VIA,CLASE-VIAL,TIPO-NUM,NUM,LOCALIDAD,PROVINCIA,CODIGO-POSTAL,BARRIO,DISTRITO,COORDENADA-X,COORDENADA-Y,LATITUD,LONGITUD
6070995,Jardines Gregorio Ordóñez,,Zonas infantiles,"Metro: Núñez de Balboa (líneas 5 y 9) Bus: 1, 29, 52, 74  Servicio Bicimad, para consultar la estación más cercana, acceda al mapa de geolocalización de las estaciones.",2,http://www.madrid.es/sites/v/index.jsp?vgnextchannel=bfa48ab43d6bb410VgnVCM100000171f5a0aRCRD&vgnextoid=2fba3c8f758ff210VgnVCM2000000c205a0aRCRD,PRINCIPE DE VERGARA,CALLE,V,68.0,MADRID,MADRID,28006.0,LISTA,SALAMANCA,442443.0,4476090.0,40.43346186779773,-3.6785954778654113
6010361,Jardines San Francisco el Grande,,No especificado,"Bus: 3, 60 y 148.  Servicio Bicimad, para consultar la estación más cercana, acceda al mapa de geolocalización de las estaciones.",2,http://www.madrid.es/sites/v/index.jsp?vgnextchannel=bfa48ab43d6bb410VgnVCM100000171f5a0aRCRD&vgnextoid=ffe7a3575e2ee210VgnVCM2000000c205a0aRCRD,GRAN VIA DE SAN FRANCISCO,AVENIDA,V,25.0,MADRID,MADRID,28005.0,PALACIO,CENTRO,439572.0,4473192.0,40.41002249621306,-3.714419912786956
5964519,Jardines de Andrés Saborit,,Zonas infantiles Zonas de mayores Circuito Biosaludable,"Metro: Nuevos Ministerios (líneas 6, 8 y 10) Bus: 5, 68, 149, C1, C2 RENFE: Nuevos Ministerios  Servicio Bicimad, para consultar la estación más cercana, acceda al mapa de geolocalización de las estaciones.",2,http://www.madrid.es/sites/v/index.jsp?vgnextchannel=bfa48ab43d6bb410VgnVCM100000171f5a0aRCRD&vgnextoid=a1c51eadb333e210VgnVCM2000000c205a0aRCRD,RAIMUNDO FERNANDEZ VILLAVERDE,CALLE,V,32.0,MADRID,MADRID,28003.0,RIOS ROSAS,CHAMBERI,440726.0,4477510.0,40.44613326792272,-3.698969929557834
5896013,Jardines de El Buen Retiro,"Horario del parque    Primavera y verano (de abril a septiembre): desde las 6 hasta las 24 h.  Otoño e invierno (de octubre a marzo): desde las 6 hasta las 22 h.    Horario de las áreas caninas    Desde las 7:30 h hasta el cierre del parque.  Para labores puntuales de mantenimiento o reparaciones, se cerrará parcialmente el área, permitiendo el paso por una de las dos puertas a la zona que quede libre de la actuación.Se instalarán carteles para informar de estos periodos de cierre parcial del espacio con 24 h de antelación a su comienzo.","Zonas infantiles:  Zona del Pinar (Puerta del Ángel Caído) Campanillas Bajas (Puerta de España) Povar (Puerta de la Independencia) Hernani (Puerta de la Independencia) Plaza de Galicia (Puerta de Madrid) Plaza Sevilla (Puerta de América Española) Florida Park (Puerta de Reina Mercedes) Antigua Junta de Distrito (Puerta de Sainz  Baranda) Jardines de Herrero Palacios Campo Grande La Cabaña (Puerta de Mariano de Cavia) Paseo Coches, a la altura del Instituto Meteorológico  Zonas de mayores:  Paseo Coches, a la altura de Puerta de América Española Paseo Coches, a la altura del Instituto Meteorológico  Zonas caninas:  Entrada por Puerta de Mariano de Cavia  Instalaciones deportivas:  El Pinar (Puerta del Ángel Caído) Huerto Francés (Puerta del Ángel Caído)  Puntos de información ambiental:  Acceso por  C/ O&amp;acute;Donnell, 1. Acceso por la Puerta del Niño Jesús.  C/ Alfonso XII, junto a instalaciones deportivas.  Otros:  P: Viveros de Estufas - Plaza del Ángel Caído Q: Teatro de Títeres, entrada por Plaza de la Independencia R: Embarcadero, entrada por Plaza de la Independencia S: Casita de la Cabaña, entrada por Puerta de Mariano de Cavia","Metro: Retiro (línea 2), Príncipe de Vergara (líneas 2 y 9), Ibiza (línea 9), Atocha (línea 1), Atocha. Renfe (línea 1) Autobuses: 1, 2, 9, 14, 15, 19, 20, 26, 28, 32, 51, 52, 61, 63, 74, 146, 152, 202, C  Servicio Bicimad, para consultar la estación más cercana, acceda al mapa de geolocalización de las estaciones.",2,http://www.madrid.es/sites/v/index.jsp?vgnextchannel=bfa48ab43d6bb410VgnVCM100000171f5a0aRCRD&vgnextoid=499561945d9ec210VgnVCM2000000c205a0aRCRD,INDEPENDENCIA,PLAZA,V,7.0,MADRID,MADRID,28001.0,LOS JERONIMOS,RETIRO,441640.0,4474563.0,40.41964087412762,-3.68793370943788
10984428,Jardines de Gloria Fuertes,,Zona infantil,"Metro: línea 9 (Colombia) Bus: 16,29,150  Servicio Bicimad, para consultar la estación más cercana, acceda al mapa de geolocalización de las estaciones.",2,http://www.madrid.es/sites/v/index.jsp?vgnextchannel=bfa48ab43d6bb410VgnVCM100000171f5a0aRCRD&vgnextoid=f4749c2d91fcb610VgnVCM1000001d4a900aRCRD,MADRE DE DIOS,CALLE,V,2.0,MADRID,MADRID,28016.0,NUEVA ESPAÑA,CHAMARTIN,442761.0,4479202.0,40.461517637696026,-3.675117900731762
5979527,Jardines de José Luis Jiménez Manso,,Zonas infantiles,"Metro: Estrella (línea 9) Bus: 20, 30, 32  Servicio Bicimad, para consultar la estación más cercana, acceda al mapa de geolocalización de las estaciones.",2,http://www.madrid.es/sites/v/index.jsp?vgnextchannel=bfa48ab43d6bb410VgnVCM100000171f5a0aRCRD&vgnextoid=6b4d31811a17e210VgnVCM1000000b205a0aRCRD,CAMINO DE LOS VINATEROS,CALLE,V,1.0,MADRID,MADRID,28030.0,MEDIA LEGUA,MORATALAZ,443959.0,4473579.0,40.410944943237865,-3.660501733743551
5965620,Jardines de Perón,,Zonas infantiles  Zonas caninas Instalaciones deportivas,"Metro: Santiago Bernabéu (línea 10) Bus: 3, 5, 43, 149  Servicio Bicimad, para consultar la estación más cercana, acceda al mapa de geolocalización de las estaciones.",2,http://www.madrid.es/sites/v/index.jsp?vgnextchannel=bfa48ab43d6bb410VgnVCM100000171f5a0aRCRD&vgnextoid=73f370530083e210VgnVCM1000000b205a0aRCRD,GENERAL PERON,AVENIDA,V,21.0,MADRID,MADRID,28020.0,CUATRO CAMINOS,TETUAN,441002.0,4478224.0,40.45257591499544,-3.6957817548357257
6010175,Jardines de Sabatini,,No especificado,"Metro: Opera   Bus: 2, 146   Servicio Bicimad, para consultar la estación más cercana, acceda al mapa de geolocalización de las estaciones.",2,http://www.madrid.es/sites/v/index.jsp?vgnextchannel=bfa48ab43d6bb410VgnVCM100000171f5a0aRCRD&vgnextoid=20baf389ed2ee210VgnVCM1000000b205a0aRCRD,BAILEN,CALLE,V,2.0,MADRID,MADRID,28013.0,PALACIO,CENTRO,439498.0,4474610.0,40.41991128710114,-3.713185308888602
5965246,Jardines de San Fernando,,Zonas infantiles,"Metro: Cuzco (línea 10) Bús: 5, 11, 40, 140, 150  Servicio Bicimad, para consultar la estación más cercana, acceda al mapa de geolocalización de las estaciones.",2,http://www.madrid.es/sites/v/index.jsp?vgnextchannel=bfa48ab43d6bb410VgnVCM100000171f5a0aRCRD&vgnextoid=9e6e121dcd33e210VgnVCM1000000b205a0aRCRD,ALBERTO ALCOCER,AVENIDA,V,9.0,MADRID,MADRID,28036.0,NUEVA ESPAÑA,CHAMARTIN,441724.0,4479019.0,40.45978849094378,-3.687352342212426
5965719,Jardines de la Avenida de Brasil,,Zonas infantiles Zonas caninas,"Bus: 5, 126, 149  Servicio Bicimad, para consultar la estación más cercana, acceda al mapa de geolocalización de las estaciones.",2,http://www.madrid.es/sites/v/index.jsp?vgnextchannel=bfa48ab43d6bb410VgnVCM100000171f5a0aRCRD&vgnextoid=d398680e2383e210VgnVCM1000000b205a0aRCRD,BRASIL,AVENIDA,V,31.0,MADRID,MADRID,28020.0,CASTILLEJOS,TETUAN,441204.0,4478902.0,40.45870695300224,-3.6934625569379382
5965967,Jardines de la Basílica,,No especificado,"Metro: Nuevos Ministerios (líneas 6, 8 y 10) RENFE: Nuevos Ministerios Bus: 5 , 69 y 149  Servicio Bicimad, para consultar la estación más cercana, acceda al mapa de geolocalización de las estaciones.",2,http://www.madrid.es/sites/v/index.jsp?vgnextchannel=bfa48ab43d6bb410VgnVCM100000171f5a0aRCRD&vgnextoid=58df433bf683e210VgnVCM1000000b205a0aRCRD,BASILICA,CALLE,V,15.0,MADRID,MADRID,28020.0,CUATRO CAMINOS,TETUAN,441014.0,4477831.0,40.44903638127448,-3.695615530710886
5964911,Jardines de la Plaza Conde del Valle de Suchil,,Zonas infantiles Zonas caninas,"Metro: San Bernardo (líneas 2 y 4) Bus: 16, 21, 61  Servicio Bicimad, para consultar la estación más cercana, acceda al mapa de geolocalización de las estaciones.",2,http://www.madrid.es/sites/v/index.jsp?vgnextchannel=bfa48ab43d6bb410VgnVCM100000171f5a0aRCRD&vgnextoid=7c3042197833e210VgnVCM2000000c205a0aRCRD,RODRIGUEZ SAN PEDRO,CALLE,V,3.0,MADRID,MADRID,28015.0,ARAPILES,CHAMBERI,440078.0,4475877.0,40.43137597367309,-3.7064685006782208
5963489,Jardines de la Plaza de Chamberí,,Zonas Infantiles,"Metro: Iglesia (línea 1) Bus: 3, 40 y 147  Servicio Bicimad, para consultar la estación más cercana, acceda al mapa de geolocalización de las estaciones.",2,http://www.madrid.es/sites/v/index.jsp?vgnextchannel=bfa48ab43d6bb410VgnVCM100000171f5a0aRCRD&vgnextoid=d3d6ee4002e2e210VgnVCM2000000c205a0aRCRD,CHAMBERI,PLAZA,V,1.0,MADRID,MADRID,28010.0,ALMAGRO,CHAMBERI,440832.0,4476036.0,40.43285328749453,-3.697594475998512
5963151,Jardines de la Plaza de Olavide,,Zonas infantiles Zonas de mayores,"Metro: Bilbao (línea 1, 4) Bus: 3, 16, 37, 40, 61, 149  Servicio Bicimad, para consultar la estación más cercana, acceda al mapa de geolocalización de las estaciones.",2,http://www.madrid.es/sites/v/index.jsp?vgnextchannel=bfa48ab43d6bb410VgnVCM100000171f5a0aRCRD&vgnextoid=091b882aacd2e210VgnVCM2000000c205a0aRCRD,OLAVIDE,PLAZA,V,16.0,MADRID,MADRID,28010.0,TRAFALGAR,CHAMBERI,440560.0,4475996.0,40.43247362678542,-3.700785562182429
6010975,"Jardines de la Plaza de Oriente, Lepanto y Cabo Noval",,Zonas infantiles,"Metro: Ópera (líneas 2, 5 y ramal) Autobús: 25, 39  Servicio Bicimad, para consultar la estación más cercana, acceda al mapa de geolocalización de las estaciones.",2,http://www.madrid.es/sites/v/index.jsp?vgnextchannel=bfa48ab43d6bb410VgnVCM100000171f5a0aRCRD&vgnextoid=5089e51ecd6ee210VgnVCM2000000c205a0aRCRD,BAILEN,CALLE,V,17.0,MADRID,MADRID,28013.0,PALACIO,CENTRO,439526.0,4474437.0,40.41835486065351,-3.712838830603048
6067949,Jardines de la Plaza de la Villa de París,,Zonas infantiles Zonas caninas,"Metro: Colón (línea 4) Bus: 5, 14, 21 ,27, 37, 45, 53, 150  Servicio Bicimad, para consultar la estación más cercana, acceda al mapa de geolocalización de las estaciones.",2,http://www.madrid.es/sites/v/index.jsp?vgnextchannel=bfa48ab43d6bb410VgnVCM100000171f5a0aRCRD&vgnextoid=1e069432ff3ef210VgnVCM2000000c205a0aRCRD,GENERAL CASTAÑOS,CALLE,V,6.0,MADRID,MADRID,28004.0,JUSTICIA,CENTRO,441178.0,4475295.0,40.42620255233654,-3.693446898367585
6009972,Jardines de la Vega,,No especificado,"Bus: 31 , 41 , 50 , 65  Servicio Bicimad, para consultar la estación más cercana, acceda al mapa de geolocalización de las estaciones.",2,http://www.madrid.es/sites/v/index.jsp?vgnextchannel=bfa48ab43d6bb410VgnVCM100000171f5a0aRCRD&vgnextoid=44ed25154c2ee210VgnVCM1000000b205a0aRCRD,VEGA,CUESTA,V,1.0,MADRID,MADRID,28013.0,PALACIO,CENTRO,439301.0,4474039.0,40.41476219795408,-3.71544111428354
5990847,Jardines de la calle Teresita González Quevedo,,No especificado,"Bus: 3, 5, 126   Servicio Bicimad, para consultar la estación más cercana, acceda al mapa de geolocalización de las estaciones.",2,http://www.madrid.es/sites/v/index.jsp?vgnextchannel=bfa48ab43d6bb410VgnVCM100000171f5a0aRCRD&vgnextoid=5a4e4eff905ae210VgnVCM2000000c205a0aRCRD,SAN AMARO,PLAZA,V,4.0,MADRID,MADRID,28020.0,CUATRO CAMINOS,TETUAN,440900.0,4478558.0,40.45558642017734,-3.697027564909845
6011090,Jardines de las Vistillas,,Zonas infantiles,"Bus: 3, 31, 50, 65, 148  Servicio Bicimad, para consultar la estación más cercana, acceda al mapa de geolocalización de las estaciones.",2,http://www.madrid.es/sites/v/index.jsp?vgnextchannel=bfa48ab43d6bb410VgnVCM100000171f5a0aRCRD&vgnextoid=ff7261226f6ee210VgnVCM1000000b205a0aRCRD,MORERIA,CALLE,V,12.0,MADRID,MADRID,28005.0,PALACIO,CENTRO,439391.0,4473822.0,40.41281392212301,-3.7143597156687056
6011574,Jardines del Arquitecto Ribera,,Zonas infantiles,"Metro: Tribunal (líneas 1 y 10) Bus: 3, 40, 149  Servicio Bicimad, para consultar la estación más cercana, acceda al mapa de geolocalización de las estaciones.",2,http://www.madrid.es/sites/v/index.jsp?vgnextchannel=bfa48ab43d6bb410VgnVCM100000171f5a0aRCRD&vgnextoid=7c696da6957ee210VgnVCM1000000b205a0aRCRD,BARCELO,CALLE,V,2.0,MADRID,MADRID,28004.0,JUSTICIA,CENTRO,440596.0,4475321.0,40.42640449792336,-3.700298174862196
6010463,Jardines del Descubrimiento,,Aseo público,"Metro: Colón (línea 4) y Serrano (línea 4) Bus: 1, 5, 9, 14, 19, 21, 27, 45, 51, 53, 74 y 150  Servicio Bicimad, para consultar la estación más cercana, acceda al mapa de geolocalización de las estaciones.",1,http://www.madrid.es/sites/v/index.jsp?vgnextchannel=bfa48ab43d6bb410VgnVCM100000171f5a0aRCRD&vgnextoid=185afce3b03ee210VgnVCM2000000c205a0aRCRD,GOYA,CALLE,V,2.0,MADRID,MADRID,28001.0,RECOLETOS,SALAMANCA,441573.0,4475179.0,40.42518540300912,-3.6887800207651495
6076087,Jardines del Doctor Fleming,,No especificado,"Metro: Cuzco (línea 10) Bus: 27, 40 , 126, 147 y 150  Servicio Bicimad, para consultar la estación más cercana, acceda al mapa de geolocalización de las estaciones.",2,http://www.madrid.es/sites/v/index.jsp?vgnextchannel=bfa48ab43d6bb410VgnVCM100000171f5a0aRCRD&vgnextoid=b8a6a4e95e700310VgnVCM2000000c205a0aRCRD,DOCTOR FLEMING,CALLE,V,1.0,MADRID,MADRID,28036.0,HISPANOAMERICA,CHAMARTIN,441546.0,4478437.0,40.45454215758879,-3.6893863385035774
5965543,Jardines del Mundial. Castellana,,No especificado,"Metro: Santiago Bernabéu (línea 10) Bús: 14, 27, 40, 126, 147, 150  Servicio Bicimad, para consultar la estación más cercana, acceda al mapa de geolocalización de las estaciones.",2,http://www.madrid.es/sites/v/index.jsp?vgnextchannel=bfa48ab43d6bb410VgnVCM100000171f5a0aRCRD&vgnextoid=f87202f3ad73e210VgnVCM2000000c205a0aRCRD,CASTELLANA,PASEO,V,142.0,MADRID,MADRID,28046.0,HISPANOAMERICA,CHAMARTIN,441546.0,4478277.0,40.4530917282714,-3.689383308286706
6011769,Jardines del Príncipe de Anglona,Invierno: de 10 a 18:30 horas  Verano: de 10 a 22:00 horas,No especificado,"Metro: La Latina (línea 5) Bus: 3 , 31 , 50 , 65 , 148   Servicio Bicimad, para consultar la estación más cercana, acceda al mapa de geolocalización de las estaciones.",2,http://www.madrid.es/sites/v/index.jsp?vgnextchannel=bfa48ab43d6bb410VgnVCM100000171f5a0aRCRD&vgnextoid=8019ed1da87ee210VgnVCM1000000b205a0aRCRD,PAJA,PLAZA,V,6.0,MADRID,MADRID,28005.0,PALACIO,CENTRO,439638.0,4473887.0,40.41341734909077,-3.711466649831885
6081387,Jardín Botánico de Pradolongo,De noviembre a febrero de lunes a sábado de 9 a 17:30 horas. De marzo a octubre de lunes a sábado de 9 a 19:30 horas.,No especificado,"Metro: Hospital Doce de Octubre (línea 3) Bus: 6 , 60 , 78 , 81 , 121 , 131 RENFE: Doce de Octubre  Servicio Bicimad, para consultar la estación más cercana, acceda al mapa de geolocalización de las estaciones.",2,http://www.madrid.es/sites/v/index.jsp?vgnextchannel=bfa48ab43d6bb410VgnVCM100000171f5a0aRCRD&vgnextoid=f8ed0cb2b5120310VgnVCM2000000c205a0aRCRD,RAFAELA YBARRA,AVENIDA,V,0.0,MADRID,MADRID,28026.0,PRADOLONGO,USERA,439542.0,4469484.0,40.37374599660716,-3.712180056298639
5962990,Jardín Concejal Alejandro Muñoz Revenga,,Zonas infantiles,"Bus: 2, 16, 61 y 202  Servicio Bicimad, para consultar la estación más cercana, acceda al mapa de geolocalización de las estaciones.",2,http://www.madrid.es/sites/v/index.jsp?vgnextchannel=bfa48ab43d6bb410VgnVCM100000171f5a0aRCRD&vgnextoid=724bdcbc2ad2e210VgnVCM2000000c205a0aRCRD,MELENDEZ VALDES,CALLE,V,32.0,MADRID,MADRID,28015.0,GAZTAMBIDE,CHAMBERI,439591.0,4476067.0,40.43304334055123,-3.712227582685096
5964859,Jardín Doña Concha Piquer,,Zonas infantiles,"Metro: Pirámides (línea 5) Bus: 18 , 23 , 34 , 35 , 36 , 116 , 118 , 119  Servicio Bicimad, para consultar la estación más cercana, acceda al mapa de geolocalización de las estaciones.",2,http://www.madrid.es/sites/v/index.jsp?vgnextchannel=bfa48ab43d6bb410VgnVCM100000171f5a0aRCRD&vgnextoid=3181025c5733e210VgnVCM1000000b205a0aRCRD,IMPERIAL,PASEO,V,93.0,MADRID,MADRID,28005.0,IMPERIAL,ARGANZUELA,439330.0,4472632.0,40.402080397498985,-3.714965086287463
5964601,Jardín Fachada Pirámides I,,No especificado,"Metro: Pirámides (Linea 5) Bus: 18, 23 , 34, 35, 36, 116, 118, 119  Servicio Bicimad, para consultar la estación más cercana, acceda al mapa de geolocalización de las estaciones.",2,http://www.madrid.es/sites/v/index.jsp?vgnextchannel=bfa48ab43d6bb410VgnVCM100000171f5a0aRCRD&vgnextoid=f5e35c528233e210VgnVCM2000000c205a0aRCRD,ACACIAS,PASEO,V,60.0,MADRID,MADRID,28005.0,ACACIAS,ARGANZUELA,439486.0,4472564.0,40.40148810908036,-3.713132255123738
6011700,Jardín Glorieta de Azorín,,No especificado,"Bus: 31 , 41 , 50 , 65  Servicio Bicimad, para consultar la estación más cercana, acceda al mapa de geolocalización de las estaciones.",2,http://www.madrid.es/sites/v/index.jsp?vgnextchannel=bfa48ab43d6bb410VgnVCM100000171f5a0aRCRD&vgnextoid=47a40166e57ee210VgnVCM2000000c205a0aRCRD,VEGA,CUESTA,V,3.0,MADRID,MADRID,28013.0,PALACIO,CENTRO,439239.0,4474040.0,40.41475767390192,-3.716171835785045
5994445,Jardín Jazmín,,Zonas infantiles Instalaciones deportivas,"Bus: 29, 125, 129, 150  Servicio Bicimad, para consultar la estación más cercana, acceda al mapa de geolocalización de las estaciones.",2,http://www.madrid.es/sites/v/index.jsp?vgnextchannel=bfa48ab43d6bb410VgnVCM100000171f5a0aRCRD&vgnextoid=cae5e8d9af8be210VgnVCM1000000b205a0aRCRD,ROQUETAS DE MAR,CALLE,V,10.0,MADRID,MADRID,28033.0,APOSTOL SANTIAGO,HORTALEZA,444053.0,4481442.0,40.481785094079584,-3.660098332215654
6010978,Jardín Palacio O'Reilly,"Entrada por la calle Sacramento 7: de lunes a viernes de 7:00 a 17:30 horas. Sábados, domingos y festivos cerrado Entrada por la calle Rollo: de lunes a viernes de 7:15 a 19:00 horas. Sábados, domingos y festivos cerrado",No especificado,"Bus: 31, 50, 65  Servicio Bicimad, para consultar la estación más cercana, acceda al mapa de geolocalización de las estaciones.",2,http://www.madrid.es/sites/v/index.jsp?vgnextchannel=bfa48ab43d6bb410VgnVCM100000171f5a0aRCRD&vgnextoid=28dec79b4a5ee210VgnVCM1000000b205a0aRCRD,CRUZ VERDE,PLAZA,V,2.0,MADRID,MADRID,28005.0,PALACIO,CENTRO,439608.0,4473974.0,40.41418990040181,-3.7118283820550775
5963709,Jardín de Embajadores M-30,,Instalaciones deportivas,"Bus: 62 y 88  Servicio Bicimad, para consultar la estación más cercana, acceda al mapa de geolocalización de las estaciones.",2,http://www.madrid.es/sites/v/index.jsp?vgnextchannel=bfa48ab43d6bb410VgnVCM100000171f5a0aRCRD&vgnextoid=4edc357e87e2e210VgnVCM2000000c205a0aRCRD,PUERTO DE LA CRUZ VERDE,CALLE,V,29.0,MADRID,MADRID,28045.0,LEGAZPI,ARGANZUELA,441788.0,4470626.0,40.38418473435094,-3.685817452497564
6011067,Jardín de Larra,,No especificado,"Metro: Opera (líneas 2, 5 y ramal) Bus: 3, 148  Servicio Bicimad, para consultar la estación más cercana, acceda al mapa de geolocalización de las estaciones.",2,http://www.madrid.es/sites/v/index.jsp?vgnextchannel=bfa48ab43d6bb410VgnVCM100000171f5a0aRCRD&vgnextoid=04de61226f6ee210VgnVCM1000000b205a0aRCRD,FACTOR,CALLE,V,7.0,MADRID,MADRID,28013.0,PALACIO,CENTRO,439528.0,4474211.0,40.41631909566782,-3.712793771176405
5996843,Jardín de la Colonia Congosto,,Zona infantil Zona canina,"Metro: Congosto (línea 1) Bus: 54 y L1  Servicio Bicimad, para consultar la estación más cercana, acceda al mapa de geolocalización de las estaciones.",2,http://www.madrid.es/sites/v/index.jsp?vgnextchannel=bfa48ab43d6bb410VgnVCM100000171f5a0aRCRD&vgnextoid=f8a5d9e4faebe210VgnVCM2000000c205a0aRCRD,CONGOSTO,CALLE,V,70.0,MADRID,MADRID,28031.0,CASCO H.VALLECAS,VILLA DE VALLECAS,447504.0,4469108.0,40.37089825532696,-3.618365854832584
5967788,Jardín de las Bellas Artes,,No especificado,"Metro: Gregorio Marañón (líneas 7 y 10) Bús: 7, 12, 14, 27, 40, 45, 147 y 150  Servicio Bicimad, para consultar la estación más cercana, acceda al mapa de geolocalización de las estaciones.",2,http://www.madrid.es/sites/v/index.jsp?vgnextchannel=bfa48ab43d6bb410VgnVCM100000171f5a0aRCRD&vgnextoid=1777c5ab4774e210VgnVCM1000000b205a0aRCRD,CASTELLANA,PASEO,V,78.0,MADRID,MADRID,28046.0,EL VISO,CHAMARTIN,441434.0,4476714.0,40.4390037057741,-3.690548165248536
5978923,Jardín del Bulevar de Peña Gorbea,,No especificado,"Metro: Puente Vallecas (línea 1) Bus: 10, 24, 54, 57, 58, 310 y 410  Servicio Bicimad, para consultar la estación más cercana, acceda al mapa de geolocalización de las estaciones.",2,http://www.madrid.es/sites/v/index.jsp?vgnextchannel=bfa48ab43d6bb410VgnVCM100000171f5a0aRCRD&vgnextoid=1aaf38317117e210VgnVCM1000000b205a0aRCRD,PEÑA GORBEA,CALLE,V,17.0,MADRID,MADRID,28053.0,SAN DIEGO,PUENTE DE VALLECAS,443393.0,4471901.0,40.3957812018463,-3.667034672467617
5964328,Jardín del Maestro Padilla,,Zonas infantiles,"Bus: 25, 33, 39, 41, 68, 69, 138  Servicio Bicimad, para consultar la estación más cercana, acceda al mapa de geolocalización de las estaciones.",2,http://www.madrid.es/sites/v/index.jsp?vgnextchannel=bfa48ab43d6bb410VgnVCM100000171f5a0aRCRD&vgnextoid=40538ced5a23e210VgnVCM1000000b205a0aRCRD,SAN ALEJANDRO,CALLE,V,1.0,MADRID,MADRID,28005.0,IMPERIAL,ARGANZUELA,438793.0,4472904.0,40.404491323444994,-3.721330823979868
5981891,Jardín del Templo de Debod,,Zonas Infantiles,"Metro: Plaza de España (líneas 3 y 10), Ventura Rodríguez (línea 3) Bus: 25, 33, 39, 46, 74, 75, 148  Servicio Bicimad, para consultar la estación más cercana, acceda al mapa de geolocalización de las estaciones.",2,http://www.madrid.es/sites/v/index.jsp?vgnextchannel=bfa48ab43d6bb410VgnVCM100000171f5a0aRCRD&vgnextoid=c9c8f88faab7e210VgnVCM1000000b205a0aRCRD,FERRAZ,CALLE,V,1.0,MADRID,MADRID,28008.0,CASA DE CAMPO,MONCLOA-ARAVACA,439218.0,4475093.0,40.42425096551599,-3.716531855540272
5997538,Jardín del paseo Federico García Lorca,,Zonas infantiles Fuente ornamental,"Metro: Villa Vallecas (línea 1) Bus: 54 , 58 , 103 , 142 , 143 , N9 , L1  Servicio Bicimad, para consultar la estación más cercana, acceda al mapa de geolocalización de las estaciones.",2,http://www.madrid.es/sites/v/index.jsp?vgnextchannel=bfa48ab43d6bb410VgnVCM100000171f5a0aRCRD&vgnextoid=2ee9fb0adf2ce210VgnVCM1000000b205a0aRCRD,FEDERICO GARCIA LORCA,PASEO,V,21.0,MADRID,MADRID,28031.0,CASCO H.VALLECAS,VILLA DE VALLECAS,447315.0,4469832.0,40.37740868500615,-3.620640036186304
5981149,Jardín el Torero,,Zonas infantiles Instalaciones deportivas,"Bus: 23 , 55 , 60  Servicio Bicimad, para consultar la estación más cercana, acceda al mapa de geolocalización de las estaciones.",2,http://www.madrid.es/sites/v/index.jsp?vgnextchannel=bfa48ab43d6bb410VgnVCM100000171f5a0aRCRD&vgnextoid=ee1a6a14ec67e210VgnVCM2000000c205a0aRCRD,TORERO,CALLE,V,6.0,MADRID,MADRID,28026.0,MOSCARDO,USERA,440113.0,4471526.0,40.39218269145896,-3.7056345651289417
5986859,Jardín histórico El Capricho de la Alameda Osuna,"Del 1 de octubre al 31 de marzo sábados, domingos y festivos de 9 a 18:30 horas. Del 1 de abril al 30 de septiembre sábados, domingos y festivos de 9 a 21 horas. Los días 25 de diciembre y 1 de enero el parque permanece cerrado al público.",No especificado,"Metro: El Capricho (linea 5) Autobús: 101, 105 y 151  Servicio Bicimad, para consultar la estación más cercana, acceda al mapa de geolocalización de las estaciones.",2,http://www.madrid.es/sites/v/index.jsp?vgnextchannel=bfa48ab43d6bb410VgnVCM100000171f5a0aRCRD&vgnextoid=9db6fb010e99e210VgnVCM1000000b205a0aRCRD,ALAMEDA DE OSUNA,PASEO,V,25.0,MADRID,MADRID,28042.0,ALAMEDA DE OSUNA,BARAJAS,449118.0,4478373.0,40.45446361509569,-3.600096436030348
6004296,Palacio de Cristal de la Arganzuela: Invernadero,"Invierno. De 16 de sptiembre a 14 de junio. De martes a viernes de 9 a 14 horas. Sábados, domingos y festivos de 10 a 14 horas.  Verano. De 15 de junio a 15 de septiembre. De martes a viernes de 9 a 14 horas. Sábados, domingos y festivos de 10 a 14 horas.",No especificado,"Metro: Legazpi (Línea 3 y línea 6) Bus: 6, 18, 19, 45, 47, 59, 62, 76, 78, 86, 148, 247  Servicio Bicimad, para consultar la estación más cercana, acceda al mapa de geolocalización de las estaciones.",2,http://www.madrid.es/sites/v/index.jsp?vgnextchannel=bfa48ab43d6bb410VgnVCM100000171f5a0aRCRD&vgnextoid=7d855cf8438de210VgnVCM1000000b205a0aRCRD,CHOPERA,PASEO,V,10.0,MADRID,MADRID,28045.0,CHOPERA,ARGANZUELA,440714.0,4471656.0,40.3933877847248,-3.698565632659468
5966148,Parque Agustín Rodríguez Sahagún,,Zonas infantiles Zonas de mayores Instalaciones deportivas Auditorios Carril Bici,"Bus: 49 , 126 , 128  Servicio Bicimad, para consultar la estación más cercana, acceda al mapa de geolocalización de las estaciones.",2,http://www.madrid.es/sites/v/index.jsp?vgnextchannel=bfa48ab43d6bb410VgnVCM100000171f5a0aRCRD&vgnextoid=a7a655b6e783e210VgnVCM1000000b205a0aRCRD,DIRECCION,PASEO,V,301.0,MADRID,MADRID,28029.0,VALDEACEDERAS,TETUAN,440331.0,4480188.0,40.47022952429582,-3.7038792453996394
6457128,Parque Alcalde Jesús Pérez Quijano,,Zonas  infantiles Zonas de mayores Zonas caninas Instalaciones deportivas,"Metro: Valdebernardo (línea 9) Bus: 20  Servicio Bicimad, para consultar la estación más cercana, acceda al mapa de geolocalización de las estaciones.",2,http://www.madrid.es/sites/v/index.jsp?vgnextchannel=bfa48ab43d6bb410VgnVCM100000171f5a0aRCRD&vgnextoid=08c6d27a5c6b7310VgnVCM2000000c205a0aRCRD,LADERA DE LOS ALMENDROS,CALLE,V,0.0,MADRID,MADRID,28032.0,CASCO H.VICALVARO,VICALVARO,447145.0,4472806.0,40.40418961057298,-3.622901144863193
10289409,Parque Alfredo Kraus,Abierto todo el año.,No especificado,"Metro: 'Mar de Cristal', líneas 4 y 8 Autobuses: 87, 120, 125 y 172  Servicio Bicimad, para consultar la estación más cercana, acceda al mapa de geolocalización de las estaciones.",2,http://www.madrid.es/sites/v/index.jsp?vgnextchannel=bfa48ab43d6bb410VgnVCM100000171f5a0aRCRD&vgnextoid=14a8d36de4cca510VgnVCM2000001f4a900aRCRD,MAR ADRIATICO,CALLE,V,5.0,MADRID,MADRID,28033.0,PINAR DEL REY,HORTALEZA,445804.0,4480230.0,40.47098300036034,-3.639325156722205
5993604,Parque Almansa,,No especificado,"Metro: 'Cuatro Caminos', líneas 1, 2 y 6 Autobuses: 45  Servicio Bicimad, para consultar la estación más cercana, acceda al mapa de geolocalización de las estaciones.",2,http://www.madrid.es/sites/v/index.jsp?vgnextchannel=bfa48ab43d6bb410VgnVCM100000171f5a0aRCRD&vgnextoid=667c1544198be210VgnVCM2000000c205a0aRCRD,ALMANSA,CALLE,V,97.0,MADRID,MADRID,28040.0,CIUDAD UNIVERSITARIA,MONCLOA-ARAVACA,439510.0,4477867.0,40.449252672650985,-3.7133420888843114
5984172,Parque Aluche,,Zonas infantiles Zonas de mayores Instalaciones deportivas Auditorios Carril bici Carrusel Kiosco,"Metro: Aluche (linea 5) Bus: 25, 121, 131 y 138 RENFE: Aluche",2,http://www.madrid.es/sites/v/index.jsp?vgnextchannel=bfa48ab43d6bb410VgnVCM100000171f5a0aRCRD&vgnextoid=c5b4abb9e009e210VgnVCM1000000b205a0aRCRD,TEMBLEQUE,CALLE,V,45.0,MADRID,MADRID,28024.0,ALUCHE,LATINA,435562.0,4471802.0,40.39432035941884,-3.7592814565910553
5986186,Parque Aluche - Poblados,,Zonas infantiles Instalaciones deportivas Pistas de petanca,"Metro: Aluche (linea 5) Bus: 17, 117, 139 Renfe: Aluche  Servicio Bicimad, para consultar la estación más cercana, acceda al mapa de geolocalización de las estaciones.",2,http://www.madrid.es/sites/v/index.jsp?vgnextchannel=bfa48ab43d6bb410VgnVCM100000171f5a0aRCRD&vgnextoid=f96136c32a59e210VgnVCM2000000c205a0aRCRD,GUAREÑA,CALLE,V,22.0,MADRID,MADRID,28044.0,LAS AGUILAS,LATINA,435053.0,4470820.0,40.38543450752234,-3.765190215590101
5981072,Parque Alzola,,Zonas infantiles Parking,"Bus: 60 , 131  Servicio Bicimad, para consultar la estación más cercana, acceda al mapa de geolocalización de las estaciones.",2,http://www.madrid.es/sites/v/index.jsp?vgnextchannel=bfa48ab43d6bb410VgnVCM100000171f5a0aRCRD&vgnextoid=82a58b930b67e210VgnVCM2000000c205a0aRCRD,BEASAIN,CALLE,V,2.0,MADRID,MADRID,28041.0,ORCASITAS,USERA,439410.0,4468756.0,40.36716919688689,-3.7136655626692887
5994520,Parque Antonio Pirala,,Zonas infantiles Zonas caninas Instalaciones deportivas,"Metro: Carmen, Ventas (linea 5 y linea 2) Bus: 38, 106, 110, 146, 210  Servicio Bicimad, para consultar la estación más cercana, acceda al mapa de geolocalización de las estaciones.",2,http://www.madrid.es/sites/v/index.jsp?vgnextchannel=bfa48ab43d6bb410VgnVCM100000171f5a0aRCRD&vgnextoid=d77f1a2a419be210VgnVCM1000000b205a0aRCRD,ANTONIO PIRALA,CALLE,V,8.0,MADRID,MADRID,28017.0,VENTAS,CIUDAD LINEAL,444047.0,4475544.0,40.428652595625735,-3.659649292346212
5962985,Parque Anunciación,,No especificado,"Bus: 20, 26, 63.  Servicio Bicimad, para consultar la estación más cercana, acceda al mapa de geolocalización de las estaciones.",2,http://www.madrid.es/sites/v/index.jsp?vgnextchannel=bfa48ab43d6bb410VgnVCM100000171f5a0aRCRD&vgnextoid=18f52d0109d2e210VgnVCM2000000c205a0aRCRD,ANUNCIACION,CALLE,V,1.0,MADRID,MADRID,28009.0,NIÑO JESUS,RETIRO,442659.0,4473699.0,40.41192841997151,-3.67583331713166
5985636,Parque Arquitecto Antonio Palacios,,Zonas infantiles Esculturas,"Metro: Torre Arias (línea 5) Bus: 28, 48  Servicio Bicimad, para consultar la estación más cercana, acceda al mapa de geolocalización de las estaciones.",2,http://www.madrid.es/sites/v/index.jsp?vgnextchannel=bfa48ab43d6bb410VgnVCM100000171f5a0aRCRD&vgnextoid=a4e39f4e0f49e210VgnVCM2000000c205a0aRCRD,FENELON,CALLE,V,17.0,MADRID,MADRID,28022.0,CANILLEJAS,SAN BLAS-CANILLEJAS,448372.0,4476604.0,40.43847239256322,-3.608750153308992
5979932,Parque Arroyo Fontarrón,,Zonas infantiles Zonas caninas,"Bus: 8, 20, 30, 100  Servicio Bicimad, para consultar la estación más cercana, acceda al mapa de geolocalización de las estaciones.",2,http://www.madrid.es/sites/v/index.jsp?vgnextchannel=bfa48ab43d6bb410VgnVCM100000171f5a0aRCRD&vgnextoid=38c946a92b57e210VgnVCM1000000b205a0aRCRD,ARROYO FONTARRON,CALLE,V,22.0,MADRID,MADRID,28030.0,PAVONES,MORATALAZ,446012.0,4471768.0,40.39476596114844,-3.636164605181752
5993155,Parque Arroyo Fresno,,Zonas infantiles Instalaciones deportivas Zona de petancas,"Bus: 49  Servicio Bicimad, para consultar la estación más cercana, acceda al mapa de geolocalización de las estaciones.",1,http://www.madrid.es/sites/v/index.jsp?vgnextchannel=bfa48ab43d6bb410VgnVCM100000171f5a0aRCRD&vgnextoid=915fc8c5494be210VgnVCM2000000c205a0aRCRD,VENTISQUERO DE LA CONDESA,AVENIDA,V,43.0,MADRID,MADRID,28035.0,MIRASIERRA,FUENCARRAL-EL PARDO,439248.0,4482708.0,40.49284296962057,-3.7169069720385446
10703881,Parque Arroyo Pozuelo,,"Zonas infantiles: 5 áreas infantiles distribuidos por el parque Zonas de mayores: 2 áreas Área canina. Instalaciones deportivas:   - Instalación deportiva municipal (2 pistas de baloncesto, 3 pistas de futbol sala y 2 campos de fútbol 11de tierra).   -   Instalación Deportiva Municipal Básica C.F. Nuestra Señora del Buen Camino (Campo de futbol 11 de hierba).     Carril bici: 2,1 kilómetros","Transporte más próximo:  Autobús: 160  Otros trasportes cercanos:  Autobús: 161 Autobús interurbano: 658 Tren: Estación de Aravaca (Líneas C-7 y C-10) Metro-ligero/Tranvía: Estación de Aravaca (Línea 2)  Servicio Bicimad, para consultar la estación más cercana, acceda al mapa de geolocalización de las estaciones.",2,http://www.madrid.es/sites/v/index.jsp?vgnextchannel=bfa48ab43d6bb410VgnVCM100000171f5a0aRCRD&vgnextoid=c097f9e8ecf33610VgnVCM2000001f4a900aRCRD,Arroyo Pozuelo,Calle,T,63.42713567839196,MADRID,MADRID,28082.0,,MONCLOA-ARAVACA,433385.0,4478502.0,40.45451429342977,-3.7856220495572703
5992721,Parque Arroyo de los Pinos,,Zonas infantiles,"Metro: Antonio Machado (linea 7) Bus: 132  Servicio Bicimad, para consultar la estación más cercana, acceda al mapa de geolocalización de las estaciones.",2,http://www.madrid.es/sites/v/index.jsp?vgnextchannel=bfa48ab43d6bb410VgnVCM100000171f5a0aRCRD&vgnextoid=3b97545fb44be210VgnVCM2000000c205a0aRCRD,JOAQUIN LORENZO,CALLE,V,21.0,MADRID,MADRID,28035.0,PEÑA GRANDE,FUENCARRAL-EL PARDO,438613.0,4480559.0,40.47343735166941,-3.7241915440169024
5982306,Parque Avenida de Portugal,,No especificado,"Bus: 25, 33, 31, 36, 39, 65, 138  Servicio Bicimad, para consultar la estación más cercana, acceda al mapa de geolocalización de las estaciones.",2,http://www.madrid.es/sites/v/index.jsp?vgnextchannel=bfa48ab43d6bb410VgnVCM100000171f5a0aRCRD&vgnextoid=4838d459b008e210VgnVCM1000000b205a0aRCRD,A-5,AUTOVIA,T,300.0,MADRID,MADRID,28011.0,PUERTA DEL ANGEL,LATINA,437583.0,4473763.0,40.41214880704316,-3.735662031240937
5977882,Parque Azorín,,Zonas infantiles  Zonas de mayores Instalaciones deportivas Fuente ornamental,"Metro: Buenos Aires (línea 1) Bus: 10, 54, 58, 103, 136  Servicio Bicimad, para consultar la estación más cercana, acceda al mapa de geolocalización de las estaciones.",2,http://www.madrid.es/sites/v/index.jsp?vgnextchannel=bfa48ab43d6bb410VgnVCM100000171f5a0aRCRD&vgnextoid=dcdc36e498c6e210VgnVCM2000000c205a0aRCRD,ALBUFERA,AVENIDA,V,142.0,MADRID,MADRID,28038.0,PALOMERAS BAJAS,PUENTE DE VALLECAS,444449.0,4471411.0,40.39144717132174,-3.6545377410677498
5983153,Parque Barrio Las Musas,,Zonas Infantiles,"Metro: Las Musas (linea 7) Bus: 38, 140   Servicio Bicimad, para consultar la estación más cercana, acceda al mapa de geolocalización de las estaciones.",2,http://www.madrid.es/sites/v/index.jsp?vgnextchannel=bfa48ab43d6bb410VgnVCM100000171f5a0aRCRD&vgnextoid=bf326ca7fd08e210VgnVCM1000000b205a0aRCRD,NIZA,AVENIDA,V,55.0,MADRID,MADRID,28022.0,ROSAS,SAN BLAS-CANILLEJAS,448462.0,4475856.0,40.43173953068984,-3.607628369908832
6064773,Parque Begoña,,No especificado,"Bus: 125 y 135 RENFE: Ramón y Cajal  Servicio Bicimad, para consultar la estación más cercana, acceda al mapa de geolocalización de las estaciones.",2,http://www.madrid.es/sites/v/index.jsp?vgnextchannel=bfa48ab43d6bb410VgnVCM100000171f5a0aRCRD&vgnextoid=8b240b11e59df210VgnVCM2000000c205a0aRCRD,SAN MODESTO,CALLE,V,1.0,MADRID,MADRID,28034.0,VALVERDE,FUENCARRAL-EL PARDO,441756.0,4481696.0,40.48390626699566,-3.687220746230517
5991086,Parque Biosaludable,,Zonas caninas Instalaciones deportivas,"Metro: El Capricho (línea 5) Bus: 101, 114, 115 y 151  Servicio Bicimad, para consultar la estación más cercana, acceda al mapa de geolocalización de las estaciones.",2,http://www.madrid.es/sites/v/index.jsp?vgnextchannel=bfa48ab43d6bb410VgnVCM100000171f5a0aRCRD&vgnextoid=4cefff6b235ae210VgnVCM1000000b205a0aRCRD,ALAMEDA DE OSUNA,PASEO,V,8.0,MADRID,MADRID,28042.0,ALAMEDA DE OSUNA,BARAJAS,448815.0,4478108.0,40.452057731817305,-3.603648361419777
5977653,Parque Campo de la Paloma,,Zonas infantiles  Zonas caninas,,2,http://www.madrid.es/sites/v/index.jsp?vgnextchannel=bfa48ab43d6bb410VgnVCM100000171f5a0aRCRD&vgnextoid=9dfae2fa26c6e210VgnVCM2000000c205a0aRCRD,RAFAEL ALBERTI,AVENIDA,V,38.0,MADRID,MADRID,28018.0,PALOMERAS SURESTE,PUENTE DE VALLECAS,445358.0,4470511.0,40.38339946706653,-3.643762543356842
5984392,Parque Caramuel,,Zonas infantiles Zonas de mayores Instalaciones deportivas Zona de patinaje,"Bus: 138  Servicio Bicimad, para consultar la estación más cercana, acceda al mapa de geolocalización de las estaciones.",1,http://www.madrid.es/sites/v/index.jsp?vgnextchannel=bfa48ab43d6bb410VgnVCM100000171f5a0aRCRD&vgnextoid=272fc45f7309e210VgnVCM1000000b205a0aRCRD,CARAMUEL,CALLE,V,53.0,MADRID,MADRID,28011.0,PUERTA DEL ANGEL,LATINA,438111.0,4473317.0,40.4081704733386,-3.729395994595502
5982718,Parque Cerro Almodóvar,,Zonas infantiles Zonas de mayores Zonas caninas Instalaciones deportivas Auditorios Monumento y kiosco,"Bus: 25, 31 y 138  Servicio Bicimad, para consultar la estación más cercana, acceda al mapa de geolocalización de las estaciones.",1,http://www.madrid.es/sites/v/index.jsp?vgnextchannel=bfa48ab43d6bb410VgnVCM100000171f5a0aRCRD&vgnextoid=0568fda02908e210VgnVCM1000000b205a0aRCRD,MARCELINO CASTILLO,CALLE,V,29.0,MADRID,MADRID,28047.0,ALUCHE,LATINA,436799.0,4471748.0,40.393928614376,-3.744713323980896
5995330,Parque Cerro Peñabel,,Zonas infantiles,"Bus: 42, 132 y 137  Servicio Bicimad, para consultar la estación más cercana, acceda al mapa de geolocalización de las estaciones.",2,http://www.madrid.es/sites/v/index.jsp?vgnextchannel=bfa48ab43d6bb410VgnVCM100000171f5a0aRCRD&vgnextoid=4ffeb404aa9be210VgnVCM1000000b205a0aRCRD,CANDIDO MATEOS,CALLE,V,12.0,MADRID,MADRID,28035.0,PEÑA GRANDE,FUENCARRAL-EL PARDO,439123.0,4480624.0,40.47406043289477,-3.718181785566969
5978133,Parque Cerro del Tío Pío,,Zonas infantiles Zonas de mayores Instalaciones deportivas Kiosco Bar,"Bus: 54, 141 y 143  Servicio Bicimad, para consultar la estación más cercana, acceda al mapa de geolocalización de las estaciones.",2,http://www.madrid.es/sites/v/index.jsp?vgnextchannel=bfa48ab43d6bb410VgnVCM100000171f5a0aRCRD&vgnextoid=956bf5edd607e210VgnVCM1000000b205a0aRCRD,BENJAMIN PALENCIA,CALLE,V,2.0,MADRID,MADRID,28038.0,NUMANCIA,PUENTE DE VALLECAS,444395.0,4472030.0,40.39701982315709,-3.655239797848888
5991635,Parque Cerro Águila,,No especificado,"Bus: 160  Servicio Bicimad, para consultar la estación más cercana, acceda al mapa de geolocalización de las estaciones.",2,http://www.madrid.es/sites/v/index.jsp?vgnextchannel=bfa48ab43d6bb410VgnVCM100000171f5a0aRCRD&vgnextoid=129b315b7b3be210VgnVCM2000000c205a0aRCRD,CERRO DEL AGUILA,CAMINO,V,1.0,MADRID,MADRID,28023.0,ARAVACA,MONCLOA-ARAVACA,435408.0,4478196.0,40.45190771190827,-3.761757187185669
5979417,Parque Ciudad de los Ángeles,,Zonas infantiles Zonas de mayores Instalaciones deportivas Templete,"Metro: Villaverde Bajo Cruce (linea 3) Bus: 18, 126 y 86  Servicio Bicimad, para consultar la estación más cercana, acceda al mapa de geolocalización de las estaciones.",2,http://www.madrid.es/sites/v/index.jsp?vgnextchannel=bfa48ab43d6bb410VgnVCM100000171f5a0aRCRD&vgnextoid=ca515ce64717e210VgnVCM2000000c205a0aRCRD,ANOETA,CALLE,V,14.0,MADRID,MADRID,28041.0,LOS ANGELES,VILLAVERDE,440865.0,4467155.0,40.35285094988024,-3.6963807727286353
5991699,Parque Cuesta del Galbán,,No especificado,"Bus: 160  Servicio Bicimad, para consultar la estación más cercana, acceda al mapa de geolocalización de las estaciones.",2,http://www.madrid.es/sites/v/index.jsp?vgnextchannel=bfa48ab43d6bb410VgnVCM100000171f5a0aRCRD&vgnextoid=c37e65ba3d3be210VgnVCM2000000c205a0aRCRD,GALBAN,CUESTA,V,2.0,MADRID,MADRID,28023.0,ARAVACA,MONCLOA-ARAVACA,434871.0,4478011.0,40.45019927443574,-3.768070614824996
6457169,Parque Cuña Verde de Vicálvaro. Zona A,,Zonas infantiles Zonas de mayores Zonas caninas Instalaciones deportivas.,"Metro: Vicálvaro (linea 9) Bus: E3  Servicio Bicimad, para consultar la estación más cercana, acceda al mapa de geolocalización de las estaciones.",2,http://www.madrid.es/sites/v/index.jsp?vgnextchannel=bfa48ab43d6bb410VgnVCM100000171f5a0aRCRD&vgnextoid=402f9191ce6b7310VgnVCM2000000c205a0aRCRD,DAROCA,AVENIDA,V,300.0,MADRID,MADRID,28032.0,AMBROZ,VICALVARO,447563.0,4473414.0,40.40969329689759,-3.618025439807104
5984224,Parque Cuña Verde de Vicálvaro. Zona B,,Zonas infantiles Zonas de mayores Zonas caninas Instalaciones deportivas Auditorios,"Metro: San Cipriano (linea 9) Bus: 4 , E3, 100  Servicio Bicimad, para consultar la estación más cercana, acceda al mapa de geolocalización de las estaciones.",2,http://www.madrid.es/sites/v/index.jsp?vgnextchannel=bfa48ab43d6bb410VgnVCM100000171f5a0aRCRD&vgnextoid=2030b8c8d109e210VgnVCM2000000c205a0aRCRD,DAROCA,AVENIDA,V,299.0,MADRID,MADRID,28032.0,AMBROZ,VICALVARO,447659.0,4473371.0,40.40930295868704,-3.616890442862423
6457255,Parque Cuña Verde de Vicálvaro. Zona C,,Aparcamiento de sustrato terrizo,"Metro: Avenida de Guadalajara (línea 2) Bus: E2  Servicio Bicimad, para consultar la estación más cercana, acceda al mapa de geolocalización de las estaciones.",2,http://www.madrid.es/sites/v/index.jsp?vgnextchannel=bfa48ab43d6bb410VgnVCM100000171f5a0aRCRD&vgnextoid=2557b6495f6b7310VgnVCM2000000c205a0aRCRD,CANILLEJAS A VICALVARO,AVENIDA,V,102.0,MADRID,MADRID,28032.0,CASCO H.VICALVARO,VICALVARO,448175.0,4474190.0,40.41672706688541,-3.610853061814312
5982087,Parque Dehesa de la Villa,,Zonas infantiles Zonas de mayores Instalaciones deportivas Puntos de información ambiental Carril Bici Kioscos,"Metro: Francos Rodriguez y Valdezarza (línea 7). Autobús: 44, 64, 82, 126, 127 y 132  Servicio Bicimad, para consultar la estación más cercana, acceda al mapa de geolocalización de las estaciones.",2,http://www.madrid.es/sites/v/index.jsp?vgnextchannel=bfa48ab43d6bb410VgnVCM100000171f5a0aRCRD&vgnextoid=c2e013a90fb7e210VgnVCM2000000c205a0aRCRD,DEHESA DE LA VILLA,CARRETERA,V,1.0,MADRID,MADRID,28040.0,CIUDAD UNIVERSITARIA,MONCLOA-ARAVACA,438892.0,4478863.0,40.45817981904011,-3.7207253118064822
5987289,Parque Duque de Ahumada,,Zonas infantiles Zonas caninas,"Metro: San Cipriano (línea 9)  Bus: 4 , 106  Servicio Bicimad, para consultar la estación más cercana, acceda al mapa de geolocalización de las estaciones.",2,http://www.madrid.es/sites/v/index.jsp?vgnextchannel=bfa48ab43d6bb410VgnVCM100000171f5a0aRCRD&vgnextoid=9445ff7fa5a9e210VgnVCM1000000b205a0aRCRD,LAGO VAN,CALLE,V,16.0,MADRID,MADRID,28032.0,CASCO H.VICALVARO,VICALVARO,448560.0,4472870.0,40.4048457851104,-3.606231541415761
5994901,Parque El Calero,,Zonas infantiles Zonas de mayores Zonas caninas Instalaciones deportivas Auditorios,"Metro: Quintana y Carmen (línea 5) Bus: 21, 48 y 146  Servicio Bicimad, para consultar la estación más cercana, acceda al mapa de geolocalización de las estaciones.",2,http://www.madrid.es/sites/v/index.jsp?vgnextchannel=bfa48ab43d6bb410VgnVCM100000171f5a0aRCRD&vgnextoid=ba9545b9b59be210VgnVCM2000000c205a0aRCRD,JOSE DEL HIERRO,CALLE,V,1.0,MADRID,MADRID,28027.0,CONCEPCION,CIUDAD LINEAL,444707.0,4476306.0,40.43555222953495,-3.6519351470803567
5995399,Parque El Cedral,,Instalaciones deportivas,"Bus: 7, 9, 70, 72 y 87  Servicio Bicimad, para consultar la estación más cercana, acceda al mapa de geolocalización de las estaciones.",2,http://www.madrid.es/sites/v/index.jsp?vgnextchannel=bfa48ab43d6bb410VgnVCM100000171f5a0aRCRD&vgnextoid=505093e51b9be210VgnVCM2000000c205a0aRCRD,ARTURO SORIA,CALLE,V,233.0,MADRID,MADRID,28033.0,ATALAYA,CIUDAD LINEAL,443618.0,4479348.0,40.462882951414265,-3.665044100462656
5981476,Parque El Cruce,,Zonas infantiles Zonas de mayores Zonas caninas Instalaciones deportivas,"Metro: Villaverde Bajo - Cruce (línea 3) Autobús: 18, 22, 86, 116 y 130  Servicio Bicimad, para consultar la estación más cercana, acceda al mapa de geolocalización de las estaciones.",2,http://www.madrid.es/sites/v/index.jsp?vgnextchannel=bfa48ab43d6bb410VgnVCM100000171f5a0aRCRD&vgnextoid=03ff24622fa7e210VgnVCM2000000c205a0aRCRD,ALCOCER,CALLE,V,1.0,MADRID,MADRID,28021.0,LOS ANGELES,VILLAVERDE,441024.0,4466944.0,40.35097040369239,-3.69448912432986
6012426,Parque Emir Mohamed I,"10:00 a 21:00 horas, fines de semana y festivos",No especificado,"Bus: 3, 31 , 41 , 50 , 65  Servicio Bicimad, para consultar la estación más cercana, acceda al mapa de geolocalización de las estaciones.",2,http://www.madrid.es/sites/v/index.jsp?vgnextchannel=bfa48ab43d6bb410VgnVCM100000171f5a0aRCRD&vgnextoid=6671a26fbf7ee210VgnVCM1000000b205a0aRCRD,RAMON,CUESTA,V,1.0,MADRID,MADRID,28013.0,PALACIO,CENTRO,439357.0,4473997.0,40.41438785232736,-3.7147888896558183
5991419,Parque Emperatriz María de Austria,,Zonas infantiles Zonas de mayores Zonas caninas Instalaciones deportivas Auditorios Circuito deportivo Carril bici Zona bicicrós Zona cometas,"Bus: 47 , 81 , 108 , 116 , 121 , 131 , 155 Metro: Plaza Elíptica (línea 6 y 11) , Abrantes (línea 11)  Servicio Bicimad, para consultar la estación más cercana, acceda al mapa de geolocalización de las estaciones.",2,http://www.madrid.es/sites/v/index.jsp?vgnextchannel=bfa48ab43d6bb410VgnVCM100000171f5a0aRCRD&vgnextoid=57fc4fc4583be210VgnVCM1000000b205a0aRCRD,VIA LUSITANA,CALLE,V,3.0,MADRID,MADRID,28025.0,ABRANTES,CARABANCHEL,438652.0,4470443.0,40.382311100280766,-3.7227552919050586
5965783,Parque Enrique Tierno Galván,,Zonas infantiles Instalaciones deportivas Auditorios Carril bici Circuito Biosaludable  En el mismo se encuentran el Planetario y el Cine IMAX,"Bus: 148  Servicio Bicimad, para consultar la estación más cercana, acceda al mapa de geolocalización de las estaciones.",2,http://www.madrid.es/sites/v/index.jsp?vgnextchannel=bfa48ab43d6bb410VgnVCM100000171f5a0aRCRD&vgnextoid=e09f680e2383e210VgnVCM1000000b205a0aRCRD,MENESES,CALLE,V,4.0,MADRID,MADRID,28045.0,LEGAZPI,ARGANZUELA,442152.0,4471501.0,40.39210151448589,-3.681620654746187
5979033,Parque Entrevías Forestal,,Carril bici Mirador,"Bus: 88  Servicio Bicimad, para consultar la estación más cercana, acceda al mapa de geolocalización de las estaciones.",2,http://www.madrid.es/sites/v/index.jsp?vgnextchannel=bfa48ab43d6bb410VgnVCM100000171f5a0aRCRD&vgnextoid=5be77fb92217e210VgnVCM1000000b205a0aRCRD,EMBAJADORES,CALLE,V,251.0,MADRID,MADRID,28053.0,ENTREVIAS,PUENTE DE VALLECAS,443371.0,4468797.0,40.36782603611024,-3.6670181171393055
5978478,Parque Entrevías Urbano,,Zonas infantiles Zonas caninas Instalaciones deportivas Auditorios Bar Mirador,"Bus: 102, 111 Renfe: Asamblea de Madrid, Entrevías  Servicio Bicimad, para consultar la estación más cercana, acceda al mapa de geolocalización de las estaciones.",2,http://www.madrid.es/sites/v/index.jsp?vgnextchannel=bfa48ab43d6bb410VgnVCM100000171f5a0aRCRD&vgnextoid=0190f1d80c07e210VgnVCM1000000b205a0aRCRD,SUR,RONDA,V,8.0,MADRID,MADRID,28053.0,ENTREVIAS,PUENTE DE VALLECAS,443138.0,4469322.0,40.37253969509114,-3.669809160205961
5986948,Parque Este de Valdebernardo,,Ruta para bicicletas con circuito de habilidad para mountain-bike,"Metro: Valdebernardo (línea 9) Bus: 71  Servicio Bicimad, para consultar la estación más cercana, acceda al mapa de geolocalización de las estaciones.",2,http://www.madrid.es/sites/v/index.jsp?vgnextchannel=bfa48ab43d6bb410VgnVCM100000171f5a0aRCRD&vgnextoid=ef74c9728e99e210VgnVCM1000000b205a0aRCRD,DEMOCRACIA,AVENIDA,V,25.0,MADRID,MADRID,28031.0,CASCO H.VICALVARO,VICALVARO,447520.0,4471609.0,40.393429973468265,-3.618383391636273
5991581,Parque Eugenia de Montijo,,Zonas infantiles Zonas de mayores Instalaciones deportivas Circuito Deportivo,"Metro: Eugenia de Montijo (línea 5) Bus: 17 , 35 , 121 , 131 , 139  Servicio Bicimad, para consultar la estación más cercana, acceda al mapa de geolocalización de las estaciones.",2,http://www.madrid.es/sites/v/index.jsp?vgnextchannel=bfa48ab43d6bb410VgnVCM100000171f5a0aRCRD&vgnextoid=4d86dd17d93be210VgnVCM1000000b205a0aRCRD,PARQUE EUGENIA DE MONTIJO,CALLE,V,3.0,MADRID,MADRID,28047.0,VISTA ALEGRE,CARABANCHEL,436105.0,4470144.0,40.37942623334737,-3.752717445398877
6009920,Parque Eva Duarte,Abierto de 7:30 a 00 horas,Zonas infantiles Zonas de mayores Zonas caninas Instalaciones deportivas,"Metro: Manuel Becerra (línea 2 y 6) Bus: 12, 43, 56, 143, 156   Servicio Bicimad, para consultar la estación más cercana, acceda al mapa de geolocalización de las estaciones.",2,http://www.madrid.es/sites/v/index.jsp?vgnextchannel=bfa48ab43d6bb410VgnVCM100000171f5a0aRCRD&vgnextoid=a55f223d4b2ee210VgnVCM1000000b205a0aRCRD,DOCTOR GOMEZ ULLA,CALLE,V,9.0,MADRID,MADRID,28028.0,GUINDALERA,SALAMANCA,443337.0,4475684.0,40.42985671996897,-3.668031432543624
10554813,Parque Forestal Fuente Carrantona,,Instalaciones para mayores Zonas infantiles para todas las capacidades,"Autobuses: E2, E4, 30, 100, 140 Metro: Alsacia (L2)  Servicio Bicimad, para consultar la estación más cercana, acceda al mapa de geolocalización de las estaciones.",2,http://www.madrid.es/sites/v/index.jsp?vgnextchannel=bfa48ab43d6bb410VgnVCM100000171f5a0aRCRD&vgnextoid=d0a05d12ac8ef510VgnVCM2000001f4a900aRCRD,FUENTE CARRANTONA,CALLE,V,38.0,MADRID,MADRID,28030.0,HORCAJO,MORATALAZ,446570.0,4473464.0,40.41008304101258,-3.629714182785988
10706071,Parque Forestal Julio Alguacil Gómez,,Circuito para bicicletas. zonas de juegos infantiles. zona para perros en libertad. Fuentes ornamentales,"Acceso en coche:  Desde M-40 por salida 24, dirección Ctra Carabanchel a Villaverde. Desde Avenida de los Poblados, a calle Rafaela Ibarra, continuación hasta Ctra Carabanchel a Villaverde Desde Calle Alcocer, Calle Villalonso o Av Real de Pinto, hasta intersección con Ctra Carabanchel a Villaverde    Acceso en transporte público:  autobús MT 131   Servicio Bicimad, para consultar la estación más cercana, acceda al mapa de geolocalización de las estaciones.",2,http://www.madrid.es/sites/v/index.jsp?vgnextchannel=bfa48ab43d6bb410VgnVCM100000171f5a0aRCRD&vgnextoid=1bab840b7ce43610VgnVCM1000001d4a900aRCRD,Ctra Carabanchel a Villaverde  con vuelta Calle Verde Viento,PARQUE,T,63.42713567839196,MADRID,MADRID,28005.0,,DISTRITO,439059.0,4468043.0,40.36073540960827,-3.717718673604328
7923966,Parque Forestal de Valdebebas-Felipe VI,Primavera: 2 de marzo al 31 de mayo de 8 a 20:30 horas Verano: 1 de junio al 14 de octubre de 8 a 22 horas Invierno: 15 de octubre al 1 de marzo de 9 a 18:30 horas,No especificado,"Bus: 174 y SE  799.  Servicio Bicimad, para consultar la estación más cercana, acceda al mapa de geolocalización de las estaciones.",2,http://www.madrid.es/sites/v/index.jsp?vgnextchannel=bfa48ab43d6bb410VgnVCM100000171f5a0aRCRD&vgnextoid=65eda830bd9eb410VgnVCM2000000c205a0aRCRD,LAS FUERZAS ARMADAS,AVENIDA,V,11.0,MADRID,MADRID,28055.0,VALDEFUENTES,HORTALEZA,445636.0,4481782.0,40.48494412599755,-3.641451621738692
6451513,Parque Forestal de Vicálvaro,,Zonas caninas Instalaciones deportivas,"Metro: San Cipriano, Puerta de Arganda (linea 9) Bus: E3 Renfe: Vicálvaro  Servicio Bicimad, para consultar la estación más cercana, acceda al mapa de geolocalización de las estaciones.",2,http://www.madrid.es/sites/v/index.jsp?vgnextchannel=bfa48ab43d6bb410VgnVCM100000171f5a0aRCRD&vgnextoid=ac3691cda0d97310VgnVCM2000000c205a0aRCRD,POLIDEPORTIVO,PASEO,V,1.0,MADRID,MADRID,28032.0,AMBROZ,VICALVARO,448560.0,4473466.0,40.41022401774968,-3.60626801415248
5968930,Parque Félix Rodríguez de la Fuente,,Zonas infantiles Instalaciones deportivas Circuito Biosaludable,"Metro: Avenida la Paz (línea 4) Bus: 9 , 72 , 73 , 120  Servicio Bicimad, para consultar la estación más cercana, acceda al mapa de geolocalización de las estaciones.",2,http://www.madrid.es/sites/v/index.jsp?vgnextchannel=bfa48ab43d6bb410VgnVCM100000171f5a0aRCRD&vgnextoid=f1b7e63d0384e210VgnVCM1000000b205a0aRCRD,PADRE CLARET,CALLE,V,38.0,MADRID,MADRID,28002.0,PROSPERIDAD,CHAMARTIN,443583.0,4478145.0,40.45205238274073,-3.6653500732558792
5982998,Parque General Fanjul - Santa Margarita,,Zonas infantiles Zonas de mayores Instalaciones deportivas Monumento,"Bus: 17, 34, 39, 117, 139 Renfe: Las Águilas  Servicio Bicimad, para consultar la estación más cercana, acceda al mapa de geolocalización de las estaciones.",2,http://www.madrid.es/sites/v/index.jsp?vgnextchannel=bfa48ab43d6bb410VgnVCM100000171f5a0aRCRD&vgnextoid=972c17fe7c08e210VgnVCM1000000b205a0aRCRD,DE LAS ÁGUILAS,AVENIDA,V,144.0,MADRID,MADRID,28044.0,LAS AGUILAS,LATINA,433494.0,4470268.0,40.38033890061462,-3.783498476616184
6004533,Parque Hortaleza,Abierto las 24 horas.,Zonas infantiles Zonas caninas Instalaciones deportivas,"Bus: 7 , 9 , 29 , 72 , 87 , 107 , 129 , 172 , 172SF  Servicio Bicimad, para consultar la estación más cercana, acceda al mapa de geolocalización de las estaciones.",2,http://www.madrid.es/sites/v/index.jsp?vgnextchannel=bfa48ab43d6bb410VgnVCM100000171f5a0aRCRD&vgnextoid=b482c897848de210VgnVCM1000000b205a0aRCRD,ESTACION DE HORTALEZA,CARRETERA,V,18.0,MADRID,MADRID,28033.0,PINAR DEL REY,HORTALEZA,444838.0,4481265.0,40.48024318499327,-3.650809942180937
5981830,Parque Huerta del Obispo.,,Zonas infantiles Instalaciones deportivas,"Bus: 22 , 76 , 79  Servicio Bicimad, para consultar la estación más cercana, acceda al mapa de geolocalización de las estaciones.",2,http://www.madrid.es/sites/v/index.jsp?vgnextchannel=bfa48ab43d6bb410VgnVCM100000171f5a0aRCRD&vgnextoid=2899b20479b7e210VgnVCM2000000c205a0aRCRD,PALOMARES,CALLE,V,34.0,MADRID,MADRID,28021.0,SAN ANDRES,VILLAVERDE,439520.0,4466514.0,40.34698009231551,-3.712145719392749
5987836,Parque Juan Carlos I,De junio a septiembre: Todos los días de 7 a 1 horas. De octubre a mayo: Viernes y sábados de 7 a 24 horas. Resto de la semana de 7 a 23 horas. Para más información consultar 'Información detallada del Parque Juan Carlos I',Zonas infantiles     Zonas de mayores     Zonas caninas     Instalaciones deportivas     Puntos de información ambiental     Auditorios     Préstamo de bicicletas  Para más información consultar 'Información detallada del Parque Juan Carlos I',"Metro: Feria de Madrid (línea 8)  Bus: 104, 112, 122  Servicio Bicimad, para consultar la estación más cercana, acceda al mapa de geolocalización de las estaciones.",2,http://www.madrid.es/sites/v/index.jsp?vgnextchannel=bfa48ab43d6bb410VgnVCM100000171f5a0aRCRD&vgnextoid=8d9a78a0dea9e210VgnVCM1000000b205a0aRCRD,"S.A.R. DON JUAN DE BORBON Y BATTEMBERG, 5",GLORIETA,V,5.0,MADRID 28042,MADRID,28042.0,CORRALEJOS,BARAJAS,447867.0,4478996.0,40.45999848510341,-3.614888870630359
5996223,Parque Juan Pablo II,Abierto de 7 a 23 horas.,Zonas infantiles Zonas caninas Instalaciones deportivas Carril bici,"Bus: 112 , 122  Servicio Bicimad, para consultar la estación más cercana, acceda al mapa de geolocalización de las estaciones.",2,http://www.madrid.es/sites/v/index.jsp?vgnextchannel=bfa48ab43d6bb410VgnVCM100000171f5a0aRCRD&vgnextoid=ea452f20e2ebe210VgnVCM2000000c205a0aRCRD,MACHUPICHU,AVENIDA,V,1.0,MADRID,MADRID,28043.0,PIOVERA,HORTALEZA,447131.0,4478496.0,40.45544764269407,-3.623539375307719
11040880,Parque Juan de la Cosa,,Zonas infantiles,"Metro: líneas 8 y 9 (Colombia)  Bus: 14,7,16,29,51",2,http://www.madrid.es/sites/v/index.jsp?vgnextchannel=bfa48ab43d6bb410VgnVCM100000171f5a0aRCRD&vgnextoid=949c882879abd610VgnVCM1000001d4a900aRCRD,VICTOR ANDRES BELAUNDE,CALLE,V,1.0,MADRID,MADRID,28016.0,HISPANOAMERICA,CHAMARTIN,442411.0,4478397.0,40.45424210617104,-3.679171627391412
5993167,Parque La Rinconada,,Zonas infantiles,"Bus: 160  Servicio Bicimad, para consultar la estación más cercana, acceda al mapa de geolocalización de las estaciones.",2,http://www.madrid.es/sites/v/index.jsp?vgnextchannel=bfa48ab43d6bb410VgnVCM100000171f5a0aRCRD&vgnextoid=60ce7016894be210VgnVCM1000000b205a0aRCRD,HIENDELAENCINA,CALLE,V,9.0,MADRID,MADRID,28023.0,ARAVACA,MONCLOA-ARAVACA,435014.0,4478821.0,40.45750725687833,-3.766455491041625
5978304,Parque La Viña,,Zonas infantiles Instalaciones deportivas,Bus: 102 Renfe: Asamblea de Madrid- Entrevías,2,http://www.madrid.es/sites/v/index.jsp?vgnextchannel=bfa48ab43d6bb410VgnVCM100000171f5a0aRCRD&vgnextoid=848eeef66907e210VgnVCM1000000b205a0aRCRD,TIMOTEO PEREZ RUBIO,CALLE,V,9.0,MADRID,MADRID,28053.0,ENTREVIAS,PUENTE DE VALLECAS,442766.0,4470771.0,40.38556774381467,-3.67430914572838
5984737,Parque Ladera de los Almendros,,Zonas infantiles Zonas caninas,"Bus: 8 , 71  Servicio Bicimad, para consultar la estación más cercana, acceda al mapa de geolocalización de las estaciones.",2,http://www.madrid.es/sites/v/index.jsp?vgnextchannel=bfa48ab43d6bb410VgnVCM100000171f5a0aRCRD&vgnextoid=60d548147809e210VgnVCM2000000c205a0aRCRD,LADERA DE LOS ALMENDROS,CALLE,V,46.0,MADRID,MADRID,28032.0,VALDEBERNARDO,VICALVARO,,,40.39616431537003,-3.6261065047300303
5977748,Parque Lineal de Palomeras,,No especificado,"Bus: 54, 58, 103, 142, 143, 310 Metro: Miguel Hernández  Servicio Bicimad, para consultar la estación más cercana, acceda al mapa de geolocalización de las estaciones.",2,http://www.madrid.es/sites/v/index.jsp?vgnextchannel=bfa48ab43d6bb410VgnVCM100000171f5a0aRCRD&vgnextoid=d757e2fa26c6e210VgnVCM2000000c205a0aRCRD,ALBUFERA,AVENIDA,V,293.0,MADRID,MADRID,28038.0,PALOMERAS SURESTE,PUENTE DE VALLECAS,445987.0,4470776.0,40.38581882868559,-3.6363631773029352
5987787,Parque Lineal del Manzanares (Usera - Pte de Vallecas),En Otoño e Invierno: de 7 a 22 horas. En Primavera y Verano: de 7 a 24 horas (se inicia el fin de semana del cambio a horario de verano).,Zonas infantiles Zonas de mayores Zonas caninas Instalaciones deportivas Auditorios Senda botánica Mirador Circuito deportivo,"Metro: Doce de Octubre (línea 3) Bus: 23 , 123 , 78  Servicio Bicimad, para consultar la estación más cercana, acceda al mapa de geolocalización de las estaciones.",2,http://www.madrid.es/sites/v/index.jsp?vgnextchannel=bfa48ab43d6bb410VgnVCM100000171f5a0aRCRD&vgnextoid=a0a4b0cedda9e210VgnVCM1000000b205a0aRCRD,PERALES,CAMINO,V,47.0,MADRID,MADRID,28026.0,ALMENDRALES,USERA,,,40.379745,-3.690042
6372574,Parque Madrid Río,,"Zonas infantiles  Jabalíes (C/ Ribera del Manzanares, 1) Bosque de Trepa (Junto Puente del Rey) Mikado (P&amp;ordm; Marqués de Monistrol, 3) Jabalíes (P&amp;ordm; de la Ermita del Santo, 8) Esqueleto  (Av. Del Manzanares, 12) Columpios (Av. Del Manzanares, 44) Columpios (Bajo enlace Pirámides; Marqués de Vadillo, Margen derecha) Accesibilidad Universal (Frente a Pasarela de Bolas) Equilibrios (Av. Del Manzanares, 172) Tirolina (Av. Del Manzanares, 206) El Vado (C/ Antonio López, 183) Bosque de Trepa (C/ Virgen del Puerto, 47) Columpios (Bajo enlace Pirámides; Marqués de Vadillo, Margen izquierda) Esqueleto (P&amp;ordm; de Yeserías, 9) Toboganes (P&amp;ordm; de Yeserías, 27) Barco Lapset (P&amp;ordm; de Yeserías, 49) Tirolina (P&amp;ordm; de la Chopera, 37) Columpios (C/ Embajadores, 314, en BMX)    Zonas de mayores   Zonas caninas   Instalaciones deportivas  Pistas de padel (P&amp;ordm; Marqués de Monistrol, s/n) Petanca (San Pol de Mar) Petanca (Junto al Puente de San Isidro) Pistas polideportivas (Junto al Puente de San Isidro) Circuito biosaludable (Av.. del Manzanares, frente al Estadio Vicente  Calderón) Rocódromo Roc 30 (Av. del Manzanares, 108) Pistas polideportivas (Pasaje de Montserrat, s/n) Petanca (P&amp;ordm; de Yeserías, 29) Fútbol 11 y 7 (Parque de Arganzuela, junto Puente de Praga) Skatepark y Patinaje (P&amp;ordm; de la Chopera, junto Puente de Praga) Pistas de padel y tenis (Av. Del Manzanares, junto Puente de Praga) Circuito biosaludable (Entre Puente de Praga y C/ San  Graciano) Petanca (Frente al Invernadero de Arganzuela) Centro de Remo (Pasarela de la Princesa) Pistas polideportivas (C/ del Vado, s/n) Pista de baloncesto (C/ Ricardo Damas) Pista de BMX (C/ Embajadores, 316) Circuito biosaludable (C/ Embajadores, 314, en BMX)    Puntos de información ambiental   Auditorios   Quioscos y cafeterías  Café. Bar Puente de Segovia (P&amp;ordm; de la Ermita del Santo, 4) Café. Bar Virgen del Puerto (P&amp;ordm; Virgen del Puerto, 45) Cafetería Pasaje de Montserrat (Al norte del Pasaje de  Montserrat) Quiosco de helados y bebidas (P&amp;ordm; de las Yeserías, 31) Café. Bar Playa (P&amp;ordm; de las Yeserías, 41)    Puentes, pasarelas y presas (de norte a sur)  Puente de los Franceses Presa n&amp;ordm; 3 Pasarela de Almuñecar Presa n&amp;ordm; 4 Pasarela histórica de Aniceto Marinas Puente del Rey Presa n&amp;ordm; 5 Puente de Segovia Puente Oblicuo Presa n&amp;ordm; 6 Pasarela del Principado de Andorra Puente de San Isidro Presa n&amp;ordm; 7 Pontona Norte Puente de Toledo Pasarela del Canal Puente de Bolas Puente Monumental o Pasarela Perrault Pasarela de la Playa Presa n&amp;ordm; 8 Puente de Praga Pasarela de Praga Puente del Invernadero Puente de Matadero Puente de la Princesa Pasarela de la Princesa Presa n&amp;ordm; 9 Pasarela Nudo Sur","Metro: Príncipe Pío (línea 6 y 10), Puerta del Ángel (línea 6), Pirámides (línea 5), Marqués de Vadillo (línea 5), Legazpi (línea 3 y 6) y Almendrales (línea 3). RENFE: Príncipe Pío, Pirámides. Aparcamiento Público (próximo): Paseo de Extremadura y Principe Pio.  Servicio Bicimad, para consultar la estación más cercana, acceda al mapa de geolocalización de las estaciones.",2,http://www.madrid.es/sites/v/index.jsp?vgnextchannel=bfa48ab43d6bb410VgnVCM100000171f5a0aRCRD&vgnextoid=4fec1d25e5356310VgnVCM2000000c205a0aRCRD,PASEO DE LAS YESERIAS,PASARELA HISTORICA,T,63.42713567839196,MADRID,MADRID,28005.0,,DISTRITO,439532.0,4472193.0,40.39815439895114,-3.7125359439695975
5983740,Parque Martala,,Zonas infantiles Zonas de mayores Zonas caninas Instalaciones deportivas,"Bus: 32, 71  Servicio Bicimad, para consultar la estación más cercana, acceda al mapa de geolocalización de las estaciones.",2,http://www.madrid.es/sites/v/index.jsp?vgnextchannel=bfa48ab43d6bb410VgnVCM100000171f5a0aRCRD&vgnextoid=f6719706b5f8e210VgnVCM2000000c205a0aRCRD,MORATALAZ,AVENIDA,V,183.0,MADRID,MADRID,28030.0,MARROQUINA,MORATALAZ,445366.0,4473334.0,40.40882236801765,-3.643898652734279
5963936,Parque Martin Luther King,,Zonas infantiles Instalaciones deportivas Auditorios,"Metro: Conde de Casal (línea 6). Bus: 8 , 10 , 24 , 54 , 56 , 57 , 113 , 136, 141 , 148 , 310.  Servicio Bicimad, para consultar la estación más cercana, acceda al mapa de geolocalización de las estaciones.",2,http://www.madrid.es/sites/v/index.jsp?vgnextchannel=bfa48ab43d6bb410VgnVCM100000171f5a0aRCRD&vgnextoid=14ec3abc4be2e210VgnVCM1000000b205a0aRCRD,CERRO NEGRO,CALLE,V,1.0,MADRID,MADRID,28007.0,ADELFAS,RETIRO,443131.0,4472170.0,40.398195733324194,-3.6701340560704026
5983593,Parque Meseta de Orcasitas,,Zonas infantiles Zonas caninas Instalaciones deportivas,"Bus: 60  Servicio Bicimad, para consultar la estación más cercana, acceda al mapa de geolocalización de las estaciones.",2,http://www.madrid.es/sites/v/index.jsp?vgnextchannel=bfa48ab43d6bb410VgnVCM100000171f5a0aRCRD&vgnextoid=1f344f963318e210VgnVCM1000000b205a0aRCRD,COOPERATIVAS,RONDA,V,6.0,MADRID,MADRID,28041.0,ORCASITAS,USERA,439919.0,4468772.0,40.3673502443602,-3.7076605178679096
5965953,Parque Mirador de Tierno Galván,,No especificado,"Bus: 148  Servicio Bicimad, para consultar la estación más cercana, acceda al mapa de geolocalización de las estaciones.",2,http://www.madrid.es/sites/v/index.jsp?vgnextchannel=bfa48ab43d6bb410VgnVCM100000171f5a0aRCRD&vgnextoid=5fd8433bf683e210VgnVCM1000000b205a0aRCRD,NEBULOSAS,CALLE,V,7.0,MADRID,MADRID,28045.0,DELICIAS,ARGANZUELA,441813.0,4471797.0,40.394735491209424,-3.6856299107811368
6006578,Parque Mirador de las Cárcavas,Abierto las 24 horas.,Zonas infantiles Instalaciones deportivas Mirador,"Bus: 87  Servicio Bicimad, para consultar la estación más cercana, acceda al mapa de geolocalización de las estaciones.",2,http://www.madrid.es/sites/v/index.jsp?vgnextchannel=bfa48ab43d6bb410VgnVCM100000171f5a0aRCRD&vgnextoid=fdbec6fde0dde210VgnVCM2000000c205a0aRCRD,RAFAELA APARICIO,CALLE,V,2.0,MADRID,MADRID,28055.0,VALDEFUENTES,HORTALEZA,446347.0,4481136.0,40.47917989766592,-3.6330084507532687
5998367,Parque Norte,,Zonas infantiles Zonas de mayores Instalaciones deportivas Mirador,"Bus: 124, 137  Servicio Bicimad, para consultar la estación más cercana, acceda al mapa de geolocalización de las estaciones.",2,http://www.madrid.es/sites/v/index.jsp?vgnextchannel=bfa48ab43d6bb410VgnVCM100000171f5a0aRCRD&vgnextoid=10d3ed24a83ce210VgnVCM1000000b205a0aRCRD,ARZOBISPO MORCILLO,CALLE,V,7.0,MADRID,MADRID,28029.0,LA PAZ,FUENCARRAL-EL PARDO,441233.0,4481384.0,40.48106787416528,-3.6933504628706095
5997754,Parque Nudo Norte de Begoña,,Zonas infantiles Instalaciones deportivas,"Metro: Begoña (línea 10) Bus: 124, 137  Servicio Bicimad, para consultar la estación más cercana, acceda al mapa de geolocalización de las estaciones.",2,http://www.madrid.es/sites/v/index.jsp?vgnextchannel=bfa48ab43d6bb410VgnVCM100000171f5a0aRCRD&vgnextoid=28588ffa023ce210VgnVCM1000000b205a0aRCRD,LLANO CASTELLANO,AVENIDA,V,1.0,MADRID,MADRID,28034.0,VALVERDE,FUENCARRAL-EL PARDO,441989.0,4481693.0,40.483895554775785,-3.684471539316277
5983597,Parque Olof Palme,,Zonas infantiles Zonas de mayores Zonas caninas,"Metro: Plaza Elíptica (línea 6 y 11) Bús: 47 , 60 , 81 , 247  Servicio Bicimad, para consultar la estación más cercana, acceda al mapa de geolocalización de las estaciones.",2,http://www.madrid.es/sites/v/index.jsp?vgnextchannel=bfa48ab43d6bb410VgnVCM100000171f5a0aRCRD&vgnextoid=5af9053c8718e210VgnVCM1000000b205a0aRCRD,CERECINOS,CALLE,V,1.0,MADRID,MADRID,28026.0,ZOFIO,USERA,439486.0,4470667.0,40.38439900273861,-3.712951996842945
10965194,Parque Orlando Zapata Tamayo,,Zonas infantiles Zonas deportivas Cancha de baloncesto,"Metro: líneas 8 y 9 (Colombia)  Bus: 52  Servicio Bicimad, para consultar la estación más cercana, acceda al mapa de geolocalización de las estaciones.",2,http://www.madrid.es/sites/v/index.jsp?vgnextchannel=bfa48ab43d6bb410VgnVCM100000171f5a0aRCRD&vgnextoid=95b86c7fe412b610VgnVCM2000001f4a900aRCRD,URUGUAY,CALLE,V,6.0,MADRID,MADRID,28016.0,HISPANOAMERICA,CHAMARTIN,442825.0,4478479.0,40.455011305200735,-3.6743070613284736
5991690,Parque Paseo Muñoz Grandes,,Zonas infantiles Zonas caninas,"Bus: 34 , 35  Servicio Bicimad, para consultar la estación más cercana, acceda al mapa de geolocalización de las estaciones.",2,http://www.madrid.es/sites/v/index.jsp?vgnextchannel=bfa48ab43d6bb410VgnVCM100000171f5a0aRCRD&vgnextoid=2bc1fe8cec3be210VgnVCM1000000b205a0aRCRD,MARCELINO CAMACHO,PASEO,V,6.0,MADRID,MADRID,28025.0,VISTA ALEGRE,CARABANCHEL,437204.0,4470763.0,40.385086008433305,-3.7398326701482016
5978254,Parque Payaso Fofó,,Zonas infantiles Zonas caninas Instalaciones deportivas,"Bus: 310, 410, 144, 57, 136 RENFE: Asamblea de Madrid - Entrevías.  Servicio Bicimad, para consultar la estación más cercana, acceda al mapa de geolocalización de las estaciones.",2,http://www.madrid.es/sites/v/index.jsp?vgnextchannel=bfa48ab43d6bb410VgnVCM100000171f5a0aRCRD&vgnextoid=3cadb9566807e210VgnVCM1000000b205a0aRCRD,PAYASO FOFO,CALLE,V,11.0,MADRID,MADRID,28018.0,PALOMERAS BAJAS,PUENTE DE VALLECAS,443987.0,4471144.0,40.38901086962944,-3.6599692832803834
5966334,Parque Peñuelas,,Zonas infantiles Zonas caninas,"Metro: Pirámides (línea 5) Bus:18, 62  Servicio Bicimad, para consultar la estación más cercana, acceda al mapa de geolocalización de las estaciones.",2,http://www.madrid.es/sites/v/index.jsp?vgnextchannel=bfa48ab43d6bb410VgnVCM100000171f5a0aRCRD&vgnextoid=41b0a2aad983e210VgnVCM2000000c205a0aRCRD,GARGANTILLA,CALLE,V,2.0,MADRID,MADRID,28005.0,ACACIAS,ARGANZUELA,440265.0,4472283.0,40.39900396358797,-3.703926416750334
5995661,Parque Pinar de la Elipa,,Zonas infantiles Instalaciones deportivas,"Bus: 28 , 71 , 110 , 113 , 210  Servicio Bicimad, para consultar la estación más cercana, acceda al mapa de geolocalización de las estaciones.",2,http://www.madrid.es/sites/v/index.jsp?vgnextchannel=bfa48ab43d6bb410VgnVCM100000171f5a0aRCRD&vgnextoid=dd872e3d07cbe210VgnVCM2000000c205a0aRCRD,FELIX RODRIGUEZ DE LA FUENTE,CALLE,V,26.0,MADRID,MADRID,28017.0,VENTAS,CIUDAD LINEAL,444319.0,4474450.0,40.418806485625446,-3.656346959235439
6007525,Parque Pinar del Rey,Abierto las 24 horas.,Zonas infantiles Auditorios Cafetería con terraza,"Bus: 9 , 72 , 87 , 125 , 229  Servicio Bicimad, para consultar la estación más cercana, acceda al mapa de geolocalización de las estaciones.",2,http://www.madrid.es/sites/v/index.jsp?vgnextchannel=bfa48ab43d6bb410VgnVCM100000171f5a0aRCRD&vgnextoid=d53460fc97dde210VgnVCM2000000c205a0aRCRD,CANILLAS,CARRETERA,V,1.0,MADRID,MADRID,28043.0,CANILLAS,HORTALEZA,444414.0,4479404.0,40.463441129364256,-3.6556488853143465
5985975,Parque Plaza Chozas de Canales,,Zonas infantiles,"Metro: Villaverde Bajo Cruce (línea 3) Bus: 22, 59, 79, 85, 123, 130  Servicio Bicimad, para consultar la estación más cercana, acceda al mapa de geolocalización de las estaciones.",2,http://www.madrid.es/sites/v/index.jsp?vgnextchannel=bfa48ab43d6bb410VgnVCM100000171f5a0aRCRD&vgnextoid=4d56195e7559e210VgnVCM2000000c205a0aRCRD,VILLAVERDE A VALLECAS,CARRETERA,V,10.0,MADRID,MADRID,28021.0,LOS ROSALES,VILLAVERDE,441360.0,4467143.0,40.35277786522202,-3.6905392176697744
5986841,Parque Plaza Colonia Oroquieta,,Zonas infantiles Instalaciones deportivas,"Metro: Villaverde Cruce (línea 3) Bus: 22, 59, 79, 85, 123, 130  Servicio Bicimad, para consultar la estación más cercana, acceda al mapa de geolocalización de las estaciones.",2,http://www.madrid.es/sites/v/index.jsp?vgnextchannel=bfa48ab43d6bb410VgnVCM100000171f5a0aRCRD&vgnextoid=920907ea5d99e210VgnVCM2000000c205a0aRCRD,VILLAVERDE A VALLECAS,CARRETERA,V,1.0,MADRID,MADRID,28041.0,LOS ROSALES,VILLAVERDE,441255.0,4467101.0,40.35239211569256,-3.691771736219469
5993732,Parque Plaza de España,,No especificado,"Metro: Plaza España (línea 2 y 3) Bus: 1, 2, 44, 74, C  Servicio Bicimad, para consultar la estación más cercana, acceda al mapa de geolocalización de las estaciones.",2,http://www.madrid.es/sites/v/index.jsp?vgnextchannel=bfa48ab43d6bb410VgnVCM100000171f5a0aRCRD&vgnextoid=e5021544198be210VgnVCM2000000c205a0aRCRD,ESPAÑA,PLAZA,V,20.0,MADRID,MADRID,28008.0,ARGUELLES,MONCLOA-ARAVACA,439631.0,4475032.0,40.42372251184839,-3.711657734050852
5985750,Parque Quinta de los Molinos,De 6:30 a 22 horas (durante todo el año),Zonas de mayores Instalaciones deportivas,"Metro: Suanzes (línea 5) Bus: 77, 104, 105, L5  Servicio Bicimad, para consultar la estación más cercana, acceda al mapa de geolocalización de las estaciones.",2,http://www.madrid.es/sites/v/index.jsp?vgnextchannel=bfa48ab43d6bb410VgnVCM100000171f5a0aRCRD&vgnextoid=3e0264a7f259e210VgnVCM2000000c205a0aRCRD,ALCALA,CALLE,V,527.0,MADRID,MADRID,28027.0,EL SALVADOR,SAN BLAS-CANILLEJAS,446935.0,4476935.0,40.44245748722783,-3.6217095632137375
10966231,Parque Ramírez de Prado,,Instalaciones Deportivas: Cancha de baloncesto,"Metro: Delicias (línea 3)  Bus: 8, 102, 152, N11, N13  Servicio Bicimad, para consultar la estación más cercana, acceda al mapa de geolocalización de las estaciones.",2,http://www.madrid.es/sites/v/index.jsp?vgnextchannel=bfa48ab43d6bb410VgnVCM100000171f5a0aRCRD&vgnextoid=2bbb8ebbc762b610VgnVCM1000001d4a900aRCRD,RAMIREZ DE PRADO,CALLE,V,2.0,MADRID,MADRID,28045.0,DELICIAS,ARGANZUELA,441489.0,4472308.0,40.39932569185547,-3.6894842200951024
5963656,Parque Roma,,Zonas infantiles Zonas de mayores Zonas caninas Instalaciones deportivas,"Metro: Saínz de Baranda (línea 6 y 9) Autobús: 30 , 56 , 143, 215  Servicio Bicimad, para consultar la estación más cercana, acceda al mapa de geolocalización de las estaciones.",2,http://www.madrid.es/sites/v/index.jsp?vgnextchannel=bfa48ab43d6bb410VgnVCM100000171f5a0aRCRD&vgnextoid=675e280d37e2e210VgnVCM1000000b205a0aRCRD,JUAN ESPLANDIU,CALLE,V,4.0,MADRID,MADRID,28007.0,ESTRELLA,RETIRO,443786.0,4474188.0,40.41641041087398,-3.662606100328213
5995523,Parque Salvador de Madariaga,,Zonas infantiles Instalaciones deportivas,"Bus: 21 , 48 , 53  Servicio Bicimad, para consultar la estación más cercana, acceda al mapa de geolocalización de las estaciones.",2,http://www.madrid.es/sites/v/index.jsp?vgnextchannel=bfa48ab43d6bb410VgnVCM100000171f5a0aRCRD&vgnextoid=51f610b32d9be210VgnVCM2000000c205a0aRCRD,SALVADOR DE MADARIAGA,CALLE,V,9.0,MADRID,MADRID,28027.0,SAN PASCUAL,CIUDAD LINEAL,444268.0,4476735.0,40.439387584092685,-3.65714841286524
5985083,Parque San Blas. El Paraíso,,Zonas infantiles Zonas de mayores Instalaciones deportivas Auditorios Reloj de sol Fuentes ornamentales,"Metro: Simancas (línea 7) Bus: 38, 109 y L7  Servicio Bicimad, para consultar la estación más cercana, acceda al mapa de geolocalización de las estaciones.",2,http://www.madrid.es/sites/v/index.jsp?vgnextchannel=bfa48ab43d6bb410VgnVCM100000171f5a0aRCRD&vgnextoid=9967511f3649e210VgnVCM2000000c205a0aRCRD,ARCENTALES,AVENIDA,V,4.0,MADRID,MADRID,28037.0,HELLIN,SAN BLAS-CANILLEJAS,447225.0,4475668.0,40.42996840999023,-3.622184001035289
5963115,Parque San José de Calasanz,,Zona Infantil,"Bus: 2, 16, 61, 202  Servicio Bicimad, para consultar la estación más cercana, acceda al mapa de geolocalización de las estaciones.",2,http://www.madrid.es/sites/v/index.jsp?vgnextchannel=bfa48ab43d6bb410VgnVCM100000171f5a0aRCRD&vgnextoid=7898311dbbd2e210VgnVCM2000000c205a0aRCRD,JOAQUIN MARIA LOPEZ,CALLE,V,39.0,MADRID,MADRID,28015.0,GAZTAMBIDE,CHAMBERI,439395.0,4476576.0,40.43761436823094,-3.714586774303988
5995933,Parque San Juan Bautista,,Zonas infantiles Instalaciones deportivas,"Bus: 53  Servicio Bicimad, para consultar la estación más cercana, acceda al mapa de geolocalización de las estaciones.",2,http://www.madrid.es/sites/v/index.jsp?vgnextchannel=bfa48ab43d6bb410VgnVCM100000171f5a0aRCRD&vgnextoid=816eec727cdbe210VgnVCM2000000c205a0aRCRD,AGASTIA,CALLE,V,87.0,MADRID,MADRID,28043.0,SAN JUAN BAUTISTA,CIUDAD LINEAL,444384.0,4478056.0,40.451304609076615,-3.655896497411837
6010395,Parque Sancho Dávila,,Zonas infantiles,"Metro: Ventas (línea 2 y 5) Bus: 12  Servicio Bicimad, para consultar la estación más cercana, acceda al mapa de geolocalización de las estaciones.",2,http://www.madrid.es/sites/v/index.jsp?vgnextchannel=bfa48ab43d6bb410VgnVCM100000171f5a0aRCRD&vgnextoid=6926a3575e2ee210VgnVCM2000000c205a0aRCRD,AMERICA ESPAÑOLA,PLAZA,V,4.0,MADRID,MADRID,28028.0,FUENTE DEL BERRO,SALAMANCA,443866.0,4475639.0,40.42949627920971,-3.6617795915510434
5997450,Parque Santa Eugenia,,Zonas infantiles Instalaciones deportivas,"Bus: 58 , 63 , N9 , 145  Servicio Bicimad, para consultar la estación más cercana, acceda al mapa de geolocalización de las estaciones.",2,http://www.madrid.es/sites/v/index.jsp?vgnextchannel=bfa48ab43d6bb410VgnVCM100000171f5a0aRCRD&vgnextoid=db73abd0991ce210VgnVCM1000000b205a0aRCRD,Cerro Almodóvar,CALLE,V,1.0,MADRID,MADRID,28031.0,SANTA EUGENIA,VILLA DE VALLECAS,448352.0,4470258.0,40.38131130575197,-3.608459149580722
5990397,Parque Santa Rita,,Zonas infantiles Zonas caninas - Instalaciones deportivas,"Bus: 34  Servicio Bicimad, para consultar la estación más cercana, acceda al mapa de geolocalización de las estaciones.",2,http://www.madrid.es/sites/v/index.jsp?vgnextchannel=bfa48ab43d6bb410VgnVCM100000171f5a0aRCRD&vgnextoid=c2fefb42fb4ae210VgnVCM2000000c205a0aRCRD,ALBA DE TORMES,CALLE,V,2.0,MADRID,MADRID,28025.0,PUERTA BONITA,CARABANCHEL,436950.0,4470094.0,40.379040097900265,-3.742770522229555
5983453,Parque Segura,,Zonas infantiles. Zonas de mayores. Zonas caninas. Circuito deportivo,"Bus: 60  Servicio Bicimad, para consultar la estación más cercana, acceda al mapa de geolocalización de las estaciones.",2,http://www.madrid.es/sites/v/index.jsp?vgnextchannel=bfa48ab43d6bb410VgnVCM100000171f5a0aRCRD&vgnextoid=f6105a8a5118e210VgnVCM1000000b205a0aRCRD,SEGURA,CALLE,V,5.0,MADRID,MADRID,28041.0,ORCASITAS,USERA,439223.0,4468850.0,40.36801139459264,-3.715877017285581
5978156,Parque Soto de Entrevías,,Zonas caninas. Puntos de información ambiental,"Bus:  102, 111  Servicio Bicimad, para consultar la estación más cercana, acceda al mapa de geolocalización de las estaciones.",2,http://www.madrid.es/sites/v/index.jsp?vgnextchannel=bfa48ab43d6bb410VgnVCM100000171f5a0aRCRD&vgnextoid=aa18e6b39707e210VgnVCM1000000b205a0aRCRD,ACCESO A LA ESTACION DE AUTOBUSES DE LA E.M.T.,CARRETERA,V,9.0,MADRID,MADRID,28053.0,ENTREVIAS,PUENTE DE VALLECAS,442697.0,4469773.0,40.376563359161366,-3.675043967167776
5997775,Parque Urpisa,,No especificado,"Bus: 54, 58, 103, 142 y N9 Metro: Villa de Vallecas (línea 1)  Servicio Bicimad, para consultar la estación más cercana, acceda al mapa de geolocalización de las estaciones.",2,http://www.madrid.es/sites/v/index.jsp?vgnextchannel=bfa48ab43d6bb410VgnVCM100000171f5a0aRCRD&vgnextoid=d36f8ffa023ce210VgnVCM1000000b205a0aRCRD,VASARES,CAMINO,V,2.0,MADRID,MADRID,28031.0,CASCO H.VALLECAS,VILLA DE VALLECAS,447404.0,4470439.0,40.38289158525453,-3.619641837988416
6451784,Parque Valdebernardo Este,,Zonas infantiles Instalaciones deportivas,"Metro: Valdebernardo (línea 9) Bus: 71  Servicio Bicimad, para consultar la estación más cercana, acceda al mapa de geolocalización de las estaciones.",2,http://www.madrid.es/sites/v/index.jsp?vgnextchannel=bfa48ab43d6bb410VgnVCM100000171f5a0aRCRD&vgnextoid=bd7e544ed3d97310VgnVCM2000000c205a0aRCRD,CORDEL DE PAVONES,CALLE,V,2.0,MADRID,MADRID,28032.0,CASCO H.VICALVARO,VICALVARO,447581.0,4472644.0,40.4027578376722,-3.617738099849234
6003192,Parque Valle de Enmedio,,Zonas infantiles Instalaciones deportivas Zonas de petancas y patinaje,"Bus: 64 Metro: Lacoma (línea 7)  Servicio Bicimad, para consultar la estación más cercana, acceda al mapa de geolocalización de las estaciones.",2,http://www.madrid.es/sites/v/index.jsp?vgnextchannel=bfa48ab43d6bb410VgnVCM100000171f5a0aRCRD&vgnextoid=86803c95f87de210VgnVCM1000000b205a0aRCRD,MIRADOR DE LA REINA,CALLE,V,22.0,MADRID,MADRID,28035.0,MIRASIERRA,FUENCARRAL-EL PARDO,438663.0,4482311.0,40.48922371593969,-3.7237594350747134
5997881,Parque Vallecas Villa,,Zonas infantiles Zonas caninas Instalaciones deportivas Fuente ornamental,"Bus: 54, 103, 142 y N9 Metro: Congosto (línea 1)  Servicio Bicimad, para consultar la estación más cercana, acceda al mapa de geolocalización de las estaciones.",2,http://www.madrid.es/sites/v/index.jsp?vgnextchannel=bfa48ab43d6bb410VgnVCM100000171f5a0aRCRD&vgnextoid=e83b9805833ce210VgnVCM1000000b205a0aRCRD,BABILAFUENTE,CALLE,V,2.0,MADRID,MADRID,28031.0,CASCO H.VALLECAS,VILLA DE VALLECAS,447039.0,4469253.0,40.37217516332789,-3.62384308326436
5983786,Parque Vandel,,Zonas infantiles,"Bus: 32  Servicio Bicimad, para consultar la estación más cercana, acceda al mapa de geolocalización de las estaciones.",2,http://www.madrid.es/sites/v/index.jsp?vgnextchannel=bfa48ab43d6bb410VgnVCM100000171f5a0aRCRD&vgnextoid=236dc11457f8e210VgnVCM2000000c205a0aRCRD,MOLINA DE SEGURA,CALLE,V,10.0,MADRID,MADRID,28030.0,MARROQUINA,MORATALAZ,445952.0,4472896.0,40.4049148503112,-3.636955454805149
5981878,Parque Virgen de la Esperanza,,Zonas infantiles Instalaciones deportivas,"Bus: 22 , 76 , 79  Servicio Bicimad, para consultar la estación más cercana, acceda al mapa de geolocalización de las estaciones.",2,http://www.madrid.es/sites/v/index.jsp?vgnextchannel=bfa48ab43d6bb410VgnVCM100000171f5a0aRCRD&vgnextoid=73aba8be5ab7e210VgnVCM2000000c205a0aRCRD,ANOETA,CALLE,V,45.0,MADRID,MADRID,28041.0,LOS ANGELES,VILLAVERDE,440471.0,4466956.0,40.35103021559652,-3.7010015933831006
5968415,Parque de Alfonso XIII,,Zonas infantiles Instalaciones deportivas,"Bus: 52  Servicio Bicimad, para consultar la estación más cercana, acceda al mapa de geolocalización de las estaciones.",2,http://www.madrid.es/sites/v/index.jsp?vgnextchannel=bfa48ab43d6bb410VgnVCM100000171f5a0aRCRD&vgnextoid=45a10c3e4f74e210VgnVCM2000000c205a0aRCRD,ALFONSO XIII,AVENIDA,V,136.0,MADRID,MADRID,28016.0,NUEVA ESPAÑA,CHAMARTIN,443267.0,4479019.0,40.45990434942118,-3.669142805075655
5986764,Parque de Amos Acero,,Zonas infantiles,"Bus: 103, 111, 57, 144, 310  Servicio Bicimad, para consultar la estación más cercana, acceda al mapa de geolocalización de las estaciones.",2,http://www.madrid.es/sites/v/index.jsp?vgnextchannel=bfa48ab43d6bb410VgnVCM100000171f5a0aRCRD&vgnextoid=c723cd641b99e210VgnVCM2000000c205a0aRCRD,SIERRA MOLINA,CALLE,V,1.0,MADRID,MADRID,28053.0,SAN DIEGO,PUENTE DE VALLECAS,443430.0,4471151.0,40.38903628994235,-3.6665321826830297
5992569,Parque de Ana Tutor,,Instalaciones deportivas Zona de patinaje,"Bus: 49, 64  Servicio Bicimad, para consultar la estación más cercana, acceda al mapa de geolocalización de las estaciones.",2,http://www.madrid.es/sites/v/index.jsp?vgnextchannel=bfa48ab43d6bb410VgnVCM100000171f5a0aRCRD&vgnextoid=bc96896bd24be210VgnVCM2000000c205a0aRCRD,VALLE DE PINARES LLANOS,CALLE,V,1.0,MADRID,MADRID,28035.0,PEÑA GRANDE,FUENCARRAL-EL PARDO,439199.0,4481904.0,40.48559668319756,-3.7174080145343456
5994605,Parque de Arriaga,,Zonas infantiles Instalaciones deportivas,"Bus: 106 , 109  Servicio Bicimad, para consultar la estación más cercana, acceda al mapa de geolocalización de las estaciones.",2,http://www.madrid.es/sites/v/index.jsp?vgnextchannel=bfa48ab43d6bb410VgnVCM100000171f5a0aRCRD&vgnextoid=964f0583e29be210VgnVCM1000000b205a0aRCRD,DAROCA,AVENIDA,V,95.0,MADRID,MADRID,28017.0,PUEBLO NUEVO,CIUDAD LINEAL,445479.0,4475138.0,40.425090271008656,-3.642721665241288
6009741,Parque de Atenas,,Zonas infantiles Instalaciones deportivas - Aseos públicos,"Bus: 3 , 31 , 41 , 50 , 65 , 148 , C1 , L3   Servicio Bicimad, para consultar la estación más cercana, acceda al mapa de geolocalización de las estaciones.",2,http://www.madrid.es/sites/v/index.jsp?vgnextchannel=bfa48ab43d6bb410VgnVCM100000171f5a0aRCRD&vgnextoid=e4de4bc5292ee210VgnVCM2000000c205a0aRCRD,SEGOVIA,CALLE,V,28.0,MADRID,MADRID,28005.0,PALACIO,CENTRO,439327.0,4473951.0,40.413971277014085,-3.715138075489171
5969105,Parque de Berlín,,Zonas infantiles Zonas de mayores Zonas caninas Instalaciones deportivas Auditorios Aseo público Senda botánica,"Metro: Concha Espina (línea 9) Bus: 16, 29, 43, 52 y 120  Servicio Bicimad, para consultar la estación más cercana, acceda al mapa de geolocalización de las estaciones.",1,http://www.madrid.es/sites/v/index.jsp?vgnextchannel=bfa48ab43d6bb410VgnVCM100000171f5a0aRCRD&vgnextoid=d2e70e165684e210VgnVCM1000000b205a0aRCRD,RAMON Y CAJAL,AVENIDA,V,2.0,MADRID,MADRID,28016.0,CIUDAD JARDIN,CHAMARTIN,442673.0,4478091.0,40.45150372849227,-3.67606453550938
6010393,Parque de Breogán,,Zonas infantiles Instalaciones deportivas,"Metro: Parque Avenidas (línea 7) Bus: 21, 43, 48 , 53 y 74  Servicio Bicimad, para consultar la estación más cercana, acceda al mapa de geolocalización de las estaciones.",2,http://www.madrid.es/sites/v/index.jsp?vgnextchannel=bfa48ab43d6bb410VgnVCM100000171f5a0aRCRD&vgnextoid=05d3a3575e2ee210VgnVCM2000000c205a0aRCRD,BRASILIA,AVENIDA,V,2.0,MADRID,MADRID,28028.0,GUINDALERA,SALAMANCA,443948.0,4476487.0,40.43714097124976,-3.660899509341831
5984659,Parque de Canillejas,,Zonas infantiles Zonas de mayores Zonas caninas Instalaciones deportivas Auditorios Monumentos,"Bus: 28, 48   Servicio Bicimad, para consultar la estación más cercana, acceda al mapa de geolocalización de las estaciones.",2,http://www.madrid.es/sites/v/index.jsp?vgnextchannel=bfa48ab43d6bb410VgnVCM100000171f5a0aRCRD&vgnextoid=0da848147809e210VgnVCM2000000c205a0aRCRD,CIRCE,CALLE,V,57.0,MADRID,MADRID,28022.0,CANILLEJAS,SAN BLAS-CANILLEJAS,448198.0,4476986.0,40.44191186628217,-3.610832880429799
5986854,Parque de Comillas,,Zonas infantiles Zonas de mayores Zonas caninas Instalaciones deportivas,"Bus: 55, 60 y 116  Servicio Bicimad, para consultar la estación más cercana, acceda al mapa de geolocalización de las estaciones.",2,http://www.madrid.es/sites/v/index.jsp?vgnextchannel=bfa48ab43d6bb410VgnVCM100000171f5a0aRCRD&vgnextoid=353f07ea5d99e210VgnVCM2000000c205a0aRCRD,MIGUEL SORIANO,CALLE,V,1.0,MADRID,MADRID,28019.0,COMILLAS,CARABANCHEL,439391.0,4471503.0,40.39191419121823,-3.7141505979369023
5981170,Parque de Darwin,,Zonas infantiles Zonas de mayores Zonas caninas Instalaciones deportivas,"Bus: 8, 20 y 113.   Servicio Bicimad, para consultar la estación más cercana, acceda al mapa de geolocalización de las estaciones.",2,http://www.madrid.es/sites/v/index.jsp?vgnextchannel=bfa48ab43d6bb410VgnVCM100000171f5a0aRCRD&vgnextoid=7aedfbb16c67e210VgnVCM1000000b205a0aRCRD,MANUEL MARIA ARRILLAGA,CALLE,V,29.0,MADRID,MADRID,28030.0,FONTARRON,MORATALAZ,443926.0,4473129.0,40.40687979108534,-3.660862691056585
5963981,Parque de Enrique Herreros,De 8 a 22 horas,Zonas infantiles Zonas de mayores Zonas caninas Instalaciones deportivas,"Metro: Canal (líneas 2, 7) Bus: 3 , 12 , 37 , 149  Servicio Bicimad, para consultar la estación más cercana, acceda al mapa de geolocalización de las estaciones.",2,http://www.madrid.es/sites/v/index.jsp?vgnextchannel=bfa48ab43d6bb410VgnVCM100000171f5a0aRCRD&vgnextoid=5d89b70bfbe2e210VgnVCM2000000c205a0aRCRD,BRAVO MURILLO,CALLE,V,49.0,MADRID,MADRID,28003.0,VALLEHERMOSO,CHAMBERI,440261.0,4476761.0,40.43934359051524,-3.7043941647283263
5993103,Parque de Francos Rodríguez,,Zonas infantiles Aparcamientos de bicicletas,"Bus: 132, 44 Metro: Francos Rodríguez (línea 7)  Servicio Bicimad, para consultar la estación más cercana, acceda al mapa de geolocalización de las estaciones.",2,http://www.madrid.es/sites/v/index.jsp?vgnextchannel=bfa48ab43d6bb410VgnVCM100000171f5a0aRCRD&vgnextoid=4bafb863b84be210VgnVCM1000000b205a0aRCRD,DOCTOR FEDERICO RUBIO Y GALI,AVENIDA,V,63.0,MADRID,MADRID,28040.0,CIUDAD UNIVERSITARIA,MONCLOA-ARAVACA,439443.0,4478366.0,40.45374298443811,-3.714179732136829
5995881,Parque de Fuencarral,,Zonas infantiles Zonas de mayores Instalaciones deportivas Templete,"Bus: 66, 137  Servicio Bicimad, para consultar la estación más cercana, acceda al mapa de geolocalización de las estaciones.",2,http://www.madrid.es/sites/v/index.jsp?vgnextchannel=bfa48ab43d6bb410VgnVCM100000171f5a0aRCRD&vgnextoid=be479bd14bdbe210VgnVCM2000000c205a0aRCRD,NUESTRA SEÑORA DE VALVERDE,CALLE,V,151.0,MADRID,MADRID,28034.0,VALVERDE,FUENCARRAL-EL PARDO,441863.0,4483506.0,40.50021894773631,-3.686124420025077
5996408,Parque de Fuentechica,,No especificado,"Bus: 66, 137   Servicio Bicimad, para consultar la estación más cercana, acceda al mapa de geolocalización de las estaciones.",2,http://www.madrid.es/sites/v/index.jsp?vgnextchannel=bfa48ab43d6bb410VgnVCM100000171f5a0aRCRD&vgnextoid=b35ca307b6ebe210VgnVCM2000000c205a0aRCRD,ANASTASIA LOPEZ,CALLE,V,21.0,MADRID,MADRID,28034.0,VALVERDE,FUENCARRAL-EL PARDO,441401.0,4483010.0,40.49571829898632,-3.6915305267345935
5996070,Parque de Fuentelarreina,,Zonas infantiles,"Bus: 67, 82  Servicio Bicimad, para consultar la estación más cercana, acceda al mapa de geolocalización de las estaciones.",2,http://www.madrid.es/sites/v/index.jsp?vgnextchannel=bfa48ab43d6bb410VgnVCM100000171f5a0aRCRD&vgnextoid=1ad736fa8ddbe210VgnVCM2000000c205a0aRCRD,ROSALIA DE CASTRO,CALLE,V,80.0,MADRID,MADRID,28035.0,PEÑA GRANDE,FUENCARRAL-EL PARDO,437809.0,4481678.0,40.48346692636297,-3.733773609896464
5996759,Parque de Gabriela Mistral,,Pista deportiva Carril bici,"Bus: 67  Servicio Bicimad, para consultar la estación más cercana, acceda al mapa de geolocalización de las estaciones.",2,http://www.madrid.es/sites/v/index.jsp?vgnextchannel=bfa48ab43d6bb410VgnVCM100000171f5a0aRCRD&vgnextoid=d7d1841629ebe210VgnVCM2000000c205a0aRCRD,ROSALIA DE CASTRO,CALLE,V,69.0,MADRID,MADRID,28035.0,PEÑA GRANDE,FUENCARRAL-EL PARDO,437819.0,4481789.0,40.48446752254184,-3.7336783173806616
5996421,Parque de Isabel Clara Eugenia,"Verano: de 7 a 1:30 horas Invierno: de 7 a 24 horas  Servicio Bicimad, para consultar la estación más cercana, acceda al mapa de geolocalización de las estaciones.",No especificado,"Bus: 9, 72, 125, 229",2,http://www.madrid.es/sites/v/index.jsp?vgnextchannel=bfa48ab43d6bb410VgnVCM100000171f5a0aRCRD&vgnextoid=21dfa307b6ebe210VgnVCM2000000c205a0aRCRD,MAR CASPIO,CALLE,V,4.0,MADRID,MADRID,28033.0,PINAR DEL REY,HORTALEZA,445229.0,4480527.0,40.47361179787156,-3.646133317289789
5992258,Parque de Juan XXIII,,Zonas infantiles,"Metro: Guzmán el Bueno (línea 6 y 7)  Servicio Bicimad, para consultar la estación más cercana, acceda al mapa de geolocalización de las estaciones.",2,http://www.madrid.es/sites/v/index.jsp?vgnextchannel=bfa48ab43d6bb410VgnVCM100000171f5a0aRCRD&vgnextoid=c3376d01014be210VgnVCM2000000c205a0aRCRD,JUAN XXIII,PASEO,V,21.0,MADRID,MADRID,28040.0,CIUDAD UNIVERSITARIA,MONCLOA-ARAVACA,439483.0,4478019.0,40.45061998428592,-3.7136749543495617
5918577,Parque de Las Cruces,,Zonas infantiles Instalaciones deportivas Kiosco Carril-bici Pistas de petanca,"Metro: Aluche (línea 5) Bus: 17, 117, 121, 131, 139, 155 Renfe: Aluche  Servicio Bicimad, para consultar la estación más cercana, acceda al mapa de geolocalización de las estaciones.",2,http://www.madrid.es/sites/v/index.jsp?vgnextchannel=bfa48ab43d6bb410VgnVCM100000171f5a0aRCRD&vgnextoid=37a5716cd5a7d210VgnVCM1000000b205a0aRCRD,POBLADOS,AVENIDA,V,74.0,MADRID,MADRID,28044.0,BUENAVISTA,CARABANCHEL,435913.0,4469938.0,40.37746689917427,-3.7547689345277977
5995455,Parque de Malmoe,,Zonas infantiles,"Bus: 106  Servicio Bicimad, para consultar la estación más cercana, acceda al mapa de geolocalización de las estaciones.",2,http://www.madrid.es/sites/v/index.jsp?vgnextchannel=bfa48ab43d6bb410VgnVCM100000171f5a0aRCRD&vgnextoid=85c4032c2c9be210VgnVCM2000000c205a0aRCRD,MALMOE,CALLE,V,2.0,MADRID,MADRID,28032.0,PUEBLO NUEVO,CIUDAD LINEAL,446914.0,4474053.0,40.41540866888321,-3.625727333816089
6003963,Parque de Manoteras,,No especificado,"Metro: Manoteras (línea 4) Bus: 7, 29  Servicio Bicimad, para consultar la estación más cercana, acceda al mapa de geolocalización de las estaciones.",2,http://www.madrid.es/sites/v/index.jsp?vgnextchannel=bfa48ab43d6bb410VgnVCM100000171f5a0aRCRD&vgnextoid=8a68538aef7de210VgnVCM1000000b205a0aRCRD,BACARES,CALLE,V,22.0,MADRID,MADRID,28033.0,APOSTOL SANTIAGO,HORTALEZA,443846.0,4480874.0,40.47665432002552,-3.662490150184719
5990633,Parque de Pan Bendito,,Zonas infantiles Zonas de mayores Zonas caninas Petanca,"Bus: 47 , 108 , 118 , 121 , 131 Metro: Pan Bendito (línea 11)  Servicio Bicimad, para consultar la estación más cercana, acceda al mapa de geolocalización de las estaciones.",2,http://www.madrid.es/sites/v/index.jsp?vgnextchannel=bfa48ab43d6bb410VgnVCM100000171f5a0aRCRD&vgnextoid=4c610dd66e4ae210VgnVCM2000000c205a0aRCRD,POBLADOS,AVENIDA,V,35.0,MADRID,MADRID,28044.0,LAS AGUILAS,CARABANCHEL,434869.0,4471275.0,40.38951896001857,-3.76740436374511
6000510,Parque de Peñagrande,,Zonas infantiles,"Bus: 82  Servicio Bicimad, para consultar la estación más cercana, acceda al mapa de geolocalización de las estaciones.",2,http://www.madrid.es/sites/v/index.jsp?vgnextchannel=bfa48ab43d6bb410VgnVCM100000171f5a0aRCRD&vgnextoid=59eb6fe4d48ce210VgnVCM2000000c205a0aRCRD,LEOPOLDO ALAS CLARIN,CALLE,V,53.0,MADRID,MADRID,28035.0,PEÑA GRANDE,FUENCARRAL-EL PARDO,437890.0,4481498.0,40.48185149371301,-3.732800354586844
6006849,Parque de Pinar de Barajas,Abierto las 24 horas.,No especificado,"Bus: 114 , 115  Servicio Bicimad, para consultar la estación más cercana, acceda al mapa de geolocalización de las estaciones.",2,http://www.madrid.es/sites/v/index.jsp?vgnextchannel=bfa48ab43d6bb410VgnVCM100000171f5a0aRCRD&vgnextoid=bc94c8a974dde210VgnVCM2000000c205a0aRCRD,A-2,AUTOVIA,T,700.0,MADRID,MADRID,28027.0,PIOVERA,HORTALEZA,446444.0,4477834.0,40.44943999585466,-3.631585428108989
5979823,Parque de Plata y Castañar,,Zonas infantiles Instalaciones deportivas,"Bus: 22, 76  Servicio Bicimad, para consultar la estación más cercana, acceda al mapa de geolocalización de las estaciones.",2,http://www.madrid.es/sites/v/index.jsp?vgnextchannel=bfa48ab43d6bb410VgnVCM100000171f5a0aRCRD&vgnextoid=31138e29b547e210VgnVCM2000000c205a0aRCRD,MIRADOR DEL SUR,GLORIETA,V,1.0,MADRID,MADRID,28021.0,SAN ANDRES,VILLAVERDE,439255.0,4466714.0,40.348762550258805,-3.715284870727623
5983595,Parque de Pradolongo,,Zonas infantiles Zonas de mayores Instalaciones deportivas Auditorios Senda Ecológica Jardín Botánico Aseo público Carril bici Mirador Templete,"Metro: Hospital 12 de Octubre (línea 3) Bus: 6 , 60 , 78 , 81 , 121 , 131 Cercanías RENFE: 12 de Octubre   Servicio Bicimad, para consultar la estación más cercana, acceda al mapa de geolocalización de las estaciones.",2,http://www.madrid.es/sites/v/index.jsp?vgnextchannel=bfa48ab43d6bb410VgnVCM100000171f5a0aRCRD&vgnextoid=1a174f963318e210VgnVCM1000000b205a0aRCRD,RAFAELA YBARRA,AVENIDA,V,85.0,MADRID,MADRID,28026.0,PRADOLONGO,USERA,439561.0,4469688.0,40.37557617692429,-3.711963730232908
5987347,Parque de Rafael Finat,,Zonas infantiles Pista de patinaje,"Bus: 17, 117, 139  Servicio Bicimad, para consultar la estación más cercana, acceda al mapa de geolocalización de las estaciones.",2,http://www.madrid.es/sites/v/index.jsp?vgnextchannel=bfa48ab43d6bb410VgnVCM100000171f5a0aRCRD&vgnextoid=d91fe18c97a9e210VgnVCM1000000b205a0aRCRD,VIDAUBA,CALLE,V,4.0,MADRID,MADRID,28044.0,LAS AGUILAS,LATINA,435155.0,4470594.0,40.383406554321375,-3.763965593354009
5989182,Parque de Salvador Allende,,Zonas infantiles Zonas de mayores Auditorios Petanca   (El cine de verano se realiza en el anfiteatro Violeta Parra),"Bus: 35, 118,155, SE1, SE832 Metro: La Peseta (línea 11)  Servicio Bicimad, para consultar la estación más cercana, acceda al mapa de geolocalización de las estaciones.",2,http://www.madrid.es/sites/v/index.jsp?vgnextchannel=bfa48ab43d6bb410VgnVCM100000171f5a0aRCRD&vgnextoid=7cfaa531dcf9e210VgnVCM2000000c205a0aRCRD,SALVADOR ALLENDE,CALLE,V,3.0,MADRID,MADRID,28054.0,BUENAVISTA,CARABANCHEL,435693.0,4468472.0,40.36434144869983,-3.757402071835875
5989658,Parque de San Isidro,,Zonas infantiles Zonas de mayores Zonas caninas Instalaciones deportivas Recinto ferial,"Metro: Marqués de Vadillo (línea 5) Bus: 17 , 50  Servicio Bicimad, para consultar la estación más cercana, acceda al mapa de geolocalización de las estaciones.",2,http://www.madrid.es/sites/v/index.jsp?vgnextchannel=bfa48ab43d6bb410VgnVCM100000171f5a0aRCRD&vgnextoid=8c420bef1b2ae210VgnVCM1000000b205a0aRCRD,ERMITA DEL SANTO,PASEO,V,74.0,MADRID,MADRID,28019.0,SAN ISIDRO,CARABANCHEL,438180.0,4472327.0,40.39924815906885,-3.72849838691206
6002086,Parque de Santa Ana,,Zonas infantiles,"Bus: 66, 137  Servicio Bicimad, para consultar la estación más cercana, acceda al mapa de geolocalización de las estaciones.",2,http://www.madrid.es/sites/v/index.jsp?vgnextchannel=bfa48ab43d6bb410VgnVCM100000171f5a0aRCRD&vgnextoid=07ce042c5f8ce210VgnVCM2000000c205a0aRCRD,SAN CUGAT DEL VALLES,CALLE,V,4.0,MADRID,MADRID,28034.0,VALVERDE,FUENCARRAL-EL PARDO,441227.0,4483196.0,40.49738155071247,-3.6936009892949127
6004232,Parque de Villa Rosa-Paco Caño,Abierto las 24 horas.,Zonas infantiles Circuito inclusivo Zonas de mayores Zonas caninas Instalaciones deportivas Esculturas Monumentos Ría,"Bus: 73 y 104  Servicio Bicimad, para consultar la estación más cercana, acceda al mapa de geolocalización de las estaciones.",2,http://www.madrid.es/sites/v/index.jsp?vgnextchannel=bfa48ab43d6bb410VgnVCM100000171f5a0aRCRD&vgnextoid=66d84eb3b28de210VgnVCM1000000b205a0aRCRD,ACONCAGUA,CALLE,V,2.0,MADRID,MADRID,28043.0,CANILLAS,HORTALEZA,446458.0,4479969.0,40.468674190501815,-3.631588640594873
5999142,Parque de la Alcazaba,,Zonas infantiles Instalaciones deportivas Miradores,"Bus: 42  Servicio Bicimad, para consultar la estación más cercana, acceda al mapa de geolocalización de las estaciones.",2,http://www.madrid.es/sites/v/index.jsp?vgnextchannel=bfa48ab43d6bb410VgnVCM100000171f5a0aRCRD&vgnextoid=625c80aeae3ce210VgnVCM1000000b205a0aRCRD,RIBADAVIA,CALLE,V,45.0,MADRID,MADRID,28029.0,EL PILAR,FUENCARRAL-EL PARDO,440059.0,4480461.0,40.47266915640937,-3.707125226601671
5995076,Parque de la Almudena,,Zonas infantiles,"Bus: 70 , 106  Servicio Bicimad, para consultar la estación más cercana, acceda al mapa de geolocalización de las estaciones.",2,http://www.madrid.es/sites/v/index.jsp?vgnextchannel=bfa48ab43d6bb410VgnVCM100000171f5a0aRCRD&vgnextoid=079127e7679be210VgnVCM2000000c205a0aRCRD,NICOLAS SALMERON,CALLE,V,4.0,MADRID,MADRID,28017.0,PUEBLO NUEVO,CIUDAD LINEAL,446349.0,4474634.0,40.42060649869604,-3.6324237307227616
5979865,Parque de la Amistad,,Zonas infantiles Instalaciones deportivas,"Metro: Villaverde Bajo - Cruce (linea 3) Bus: 18, 116  Servicio Bicimad, para consultar la estación más cercana, acceda al mapa de geolocalización de las estaciones.",2,http://www.madrid.es/sites/v/index.jsp?vgnextchannel=bfa48ab43d6bb410VgnVCM100000171f5a0aRCRD&vgnextoid=04605a943957e210VgnVCM2000000c205a0aRCRD,SANTA PETRONILA,CALLE,V,21.0,MADRID,MADRID,28021.0,LOS ROSALES,VILLAVERDE,441219.0,4466649.0,40.34832663162016,-3.692165872799477
5992502,Parque de la Bombilla,,Zonas infantiles Instalaciones deportivas Parking de bicicletas,"Metro: Príncipe Pío (líneas 6, 10 y R) Bus : 41, 46, 75, N20 Renfe: Príncipe Pío (Líneas C1, C7, C10 y Regional)  Servicio Bicimad, para consultar la estación más cercana, acceda al mapa de geolocalización de las estaciones.",2,http://www.madrid.es/sites/v/index.jsp?vgnextchannel=bfa48ab43d6bb410VgnVCM100000171f5a0aRCRD&vgnextoid=542b896bd24be210VgnVCM2000000c205a0aRCRD,VALLADOLID,AVENIDA,V,4.0,MADRID,MADRID,28008.0,CASA DE CAMPO,MONCLOA-ARAVACA,438169.0,4475556.0,40.42834456035844,-3.728941931668392
5987416,Parque de la Casa de Campo,"Durante todo el año, ininterrumpido para peatones. Cerrado al tráfico privado. Los accesos del Zoo, Parque de Atracciones, Paseo de Extremadura y zona del Lago se cierran de 1 a 6 horas.",No especificado,"Metro: Batán (línea 10)  Servicio Bicimad, para consultar la estación más cercana, acceda al mapa de geolocalización de las estaciones.",2,http://www.madrid.es/sites/v/index.jsp?vgnextchannel=bfa48ab43d6bb410VgnVCM100000171f5a0aRCRD&vgnextoid=482a315919a9e210VgnVCM1000000b205a0aRCRD,PUERTA DEL ANGEL,PASEO,V,1.0,MADRID,MADRID,28011.0,CASA DE CAMPO,MONCLOA-ARAVACA,438050.0,4474045.0,40.41472407139105,-3.7301857404819767
5984464,Parque de la Cuña Verde de Latina,,Zonas infantiles Zonas de mayores Instalaciones deportivas Carril bici Punto limpio Rocódromo Miradores,"Metro: Laguna (linea 6) Bus: 17 , 25 , 31 , 55 , 119  Servicio Bicimad, para consultar la estación más cercana, acceda al mapa de geolocalización de las estaciones.",2,http://www.madrid.es/sites/v/index.jsp?vgnextchannel=bfa48ab43d6bb410VgnVCM100000171f5a0aRCRD&vgnextoid=66732baf6409e210VgnVCM1000000b205a0aRCRD,CONCEJAL FRANCISCO JOSE JIMENEZ MARTIN,CALLE,V,11.0,MADRID,MADRID,28047.0,LUCERO,LATINA,436469.0,4472423.0,40.39998426244181,-3.7486569900905633
5978380,Parque de la Cuña Verde de O´Donnell,,Zonas infantiles Zonas de mayores Zonas caninas Instalaciones deportivas Puntos de información ambiental Auditorios Circuito Biosaludable Carril Bici,"Bus: 140  Servicio Bicimad, para consultar la estación más cercana, acceda al mapa de geolocalización de las estaciones.",2,http://www.madrid.es/sites/v/index.jsp?vgnextchannel=bfa48ab43d6bb410VgnVCM100000171f5a0aRCRD&vgnextoid=8c86e2704a07e210VgnVCM1000000b205a0aRCRD,FUENTE CARRANTONA,CALLE,V,61.0,MADRID,MADRID,28030.0,MARROQUINA,MORATALAZ,446635.0,4473699.0,40.41220177650095,-3.628985975935673
5981460,Parque de la Dehesa Boyal,,Zonas infantiles Zonas de mayores Circuito deportivo,"Bus: 59 y 79  Servicio Bicimad, para consultar la estación más cercana, acceda al mapa de geolocalización de las estaciones.",2,http://www.madrid.es/sites/v/index.jsp?vgnextchannel=bfa48ab43d6bb410VgnVCM100000171f5a0aRCRD&vgnextoid=bc1a24622fa7e210VgnVCM2000000c205a0aRCRD,BURJASOT,CALLE,V,1.0,MADRID,MADRID,28021.0,SAN CRISTOBAL,VILLAVERDE,441664.0,4466224.0,40.34452019989438,-3.686887364713823
7767308,Parque de la Gavia,,No especificado,"Metro: La Gavia, Congosto (linea 1) Autobús: Línea 103  Servicio Bicimad, para consultar la estación más cercana, acceda al mapa de geolocalización de las estaciones.",2,http://www.madrid.es/sites/v/index.jsp?vgnextchannel=bfa48ab43d6bb410VgnVCM100000171f5a0aRCRD&vgnextoid=48a88d736701a410VgnVCM1000000b205a0aRCRD,MAYORAZGO,AVENIDA,V,26.0,MADRID,MADRID,28051.0,CASCO H.VALLECAS,VILLA DE VALLECAS,446655.0,4468783.0,40.36791659504536,-3.628326750178021
5984552,Parque de la Maceta,,Zonas infantiles Zonas caninas Instalaciones deportivas,"Metro: Vicálvaro (línea 9)  Bus: E3 , 4 , 100 , 106 , 130   Servicio Bicimad, para consultar la estación más cercana, acceda al mapa de geolocalización de las estaciones.",2,http://www.madrid.es/sites/v/index.jsp?vgnextchannel=bfa48ab43d6bb410VgnVCM100000171f5a0aRCRD&vgnextoid=eb53e12aa509e210VgnVCM2000000c205a0aRCRD,DAROCA,AVENIDA,V,301.0,MADRID,MADRID,28032.0,AMBROZ,VICALVARO,447765.0,4473268.0,40.40838172678723,-3.6156327652234856
12006175,Parque de la Montaña Templo de Debod,,No especificado,,2,http://www.madrid.es/sites/v/index.jsp?vgnextchannel=bfa48ab43d6bb410VgnVCM100000171f5a0aRCRD&vgnextoid=8ac65b04f2be7810VgnVCM2000001f4a900aRCRD,PROFESOR MARTIN ALMAGRO BASCH,CALLE,V,63.42713567839196,MADRID,MADRID,28008.0,CASA DE CAMPO,MONCLOA-ARAVACA,,,40.42306560723444,-3.7168927333258734
6002643,Parque de la Supermanzana,,Zonas infantiles. Instalaciones deportivas,"Metro: Herrera Oria (línea 9) Bus: 67, 83  Servicio Bicimad, para consultar la estación más cercana, acceda al mapa de geolocalización de las estaciones.",2,http://www.madrid.es/sites/v/index.jsp?vgnextchannel=bfa48ab43d6bb410VgnVCM100000171f5a0aRCRD&vgnextoid=0a68e7d9139ce210VgnVCM2000000c205a0aRCRD,SANGENJO,CALLE,V,27.0,MADRID,MADRID,28034.0,LA PAZ,FUENCARRAL-EL PARDO,440615.0,4481861.0,40.48531189120052,-3.7006858825216624
5966337,Parque de la Ventilla,,Zonas infantiles Zonas caninas Instalaciones deportivas Circuito biosaludable,"Bus: 42 , 67 , 147  Servicio Bicimad, para consultar la estación más cercana, acceda al mapa de geolocalización de las estaciones.",2,http://www.madrid.es/sites/v/index.jsp?vgnextchannel=bfa48ab43d6bb410VgnVCM100000171f5a0aRCRD&vgnextoid=579dad627a83e210VgnVCM1000000b205a0aRCRD,VIA LIMITE,CALLE,V,51.0,MADRID,MADRID,28029.0,ALMENARA,TETUAN,441265.0,4480535.0,40.47342193811745,-3.6929061067371793
5986900,Parque de la Vicalvarada,,Zonas infantiles Zonas de mayores Instalaciones deportivas,"Bus: 4 , 100 , 106  Servicio Bicimad, para consultar la estación más cercana, acceda al mapa de geolocalización de las estaciones.",2,http://www.madrid.es/sites/v/index.jsp?vgnextchannel=bfa48ab43d6bb410VgnVCM100000171f5a0aRCRD&vgnextoid=dcbac9728e99e210VgnVCM1000000b205a0aRCRD,VILLABLANCA,CALLE,V,1.0,MADRID,MADRID,28032.0,AMBROZ,VICALVARO,448361.0,4473366.0,40.40930182229157,-3.608605091516184
11040844,Parque de la Volatería,,Zona infantil,"Metro: línea 11 (San Francisco)  Bus: 116,121,131,155",2,http://www.madrid.es/sites/v/index.jsp?vgnextchannel=bfa48ab43d6bb410VgnVCM100000171f5a0aRCRD&vgnextoid=0fb0ae22d7abd610VgnVCM2000001f4a900aRCRD,POBLADOS,AVENIDA,V,110.0,MADRID,MADRID,28054.0,BUENAVISTA,CARABANCHEL,437808.0,4469462.0,40.37342722778796,-3.732581210214349
6009708,Parque de las Avenidas,,Zonas infantiles Zonas de mayores Instalaciones deportivas Circuito biosaludable,"Metro: Parque de las Avenidas (línea 7) Bus: 53, 122, 74, 43, N3.  Servicio Bicimad, para consultar la estación más cercana, acceda al mapa de geolocalización de las estaciones.",2,http://www.madrid.es/sites/v/index.jsp?vgnextchannel=bfa48ab43d6bb410VgnVCM100000171f5a0aRCRD&vgnextoid=08ad1b44f82ee210VgnVCM1000000b205a0aRCRD,BRASILIA,AVENIDA,V,6.0,MADRID,MADRID,28028.0,GUINDALERA,SALAMANCA,443936.0,4477011.0,40.44185168357492,-3.6610753472863737
5965200,Parque de las Delicias,,Zonas infantiles,"Metro: Delicias (línea 3) Bus: 8, 19, 45, 47, 59, 85, 86 y 247  Servicio Bicimad, para consultar la estación más cercana, acceda al mapa de geolocalización de las estaciones.",2,http://www.madrid.es/sites/v/index.jsp?vgnextchannel=bfa48ab43d6bb410VgnVCM100000171f5a0aRCRD&vgnextoid=966e27668c33e210VgnVCM1000000b205a0aRCRD,PARROCO EUSEBIO CUENCA,CALLE,V,13.0,MADRID,MADRID,28045.0,DELICIAS,ARGANZUELA,441497.0,4471970.0,40.39628076855188,-3.6893809207693966
6005852,Parque de los Llanos,Abierto las 24 horas.,Zonas infantiles Instalaciones deportivas,"Metro: Canillas (línea 4). Bus: 73 , 112 , 120 , 122 , 153.  Servicio Bicimad, para consultar la estación más cercana, acceda al mapa de geolocalización de las estaciones.",2,http://www.madrid.es/sites/v/index.jsp?vgnextchannel=bfa48ab43d6bb410VgnVCM100000171f5a0aRCRD&vgnextoid=ffe8e938b9cde210VgnVCM1000000b205a0aRCRD,DIONISIO INCA YUPANQUI,CALLE,V,8.0,MADRID,MADRID,28043.0,PIOVERA,HORTALEZA,446748.0,4479185.0,40.46162113234909,-3.6281020785174873
5995181,Parque de los Tilos,,Zonas infantiles,"Bus: 70 y 106  Servicio Bicimad, para consultar la estación más cercana, acceda al mapa de geolocalización de las estaciones.",2,http://www.madrid.es/sites/v/index.jsp?vgnextchannel=bfa48ab43d6bb410VgnVCM100000171f5a0aRCRD&vgnextoid=882f89d3589be210VgnVCM2000000c205a0aRCRD,NICOLAS SALMERON,CALLE,V,1.0,MADRID,MADRID,28017.0,PUEBLO NUEVO,CIUDAD LINEAL,446145.0,4474809.0,40.422169759145554,-3.634854896175826
5965331,Parque del Bronce,,Zonas infantiles,"Bus: 62, 88 y 148  Servicio Bicimad, para consultar la estación más cercana, acceda al mapa de geolocalización de las estaciones.",2,http://www.madrid.es/sites/v/index.jsp?vgnextchannel=bfa48ab43d6bb410VgnVCM100000171f5a0aRCRD&vgnextoid=7a2c32cd2f33e210VgnVCM1000000b205a0aRCRD,BRONCE,CALLE,V,5.0,MADRID,MADRID,28045.0,LEGAZPI,ARGANZUELA,441645.0,4471324.0,40.3904716361612,-3.6875778883164583
5980782,Parque del Espinillo,,Zonas infantiles Petanca Circuito deportivo,"Metro: Ciudad de los Ángeles (línea 3) Bus: 23, 130  Servicio Bicimad, para consultar la estación más cercana, acceda al mapa de geolocalización de las estaciones.",2,http://www.madrid.es/sites/v/index.jsp?vgnextchannel=bfa48ab43d6bb410VgnVCM100000171f5a0aRCRD&vgnextoid=db6da4833767e210VgnVCM2000000c205a0aRCRD,UNANIMIDAD,CALLE,V,23.0,MADRID,MADRID,28041.0,LOS ROSALES,VILLAVERDE,441812.0,4468074.0,40.36119652692384,-3.6853017812008
5963461,Parque del Museo del Prado,,No especificado,"Metro: Atocha (línea 1). Bus: 10 , 14 , 27 , 34 , 37 , 45 , 59 , 141. RENFE: Atocha RENFE.  Servicio Bicimad, para consultar la estación más cercana, acceda al mapa de geolocalización de las estaciones.",2,http://www.madrid.es/sites/v/index.jsp?vgnextchannel=bfa48ab43d6bb410VgnVCM100000171f5a0aRCRD&vgnextoid=3047ee4002e2e210VgnVCM2000000c205a0aRCRD,PRADO,PASEO,V,11.0,MADRID,MADRID,28014.0,LOS JERONIMOS,RETIRO,441248.0,4473911.0,40.41374876020892,-3.692493983073695
5982119,Parque del Oeste,,Zonas infantiles Zonas de mayores Instalaciones deportivas Auditorios Teleférico de Rosales,"Metro: Moncloa (línea 3 y 6) , Plaza de España (línea 2, 3 y 10) y Príncipe Pío (línea 6 y 10) Bus: 21, 46, 74, 160, 161, A Cercanías: Príncipe Pío   Servicio Bicimad, para consultar la estación más cercana, acceda al mapa de geolocalización de las estaciones.",2,http://www.madrid.es/sites/v/index.jsp?vgnextchannel=bfa48ab43d6bb410VgnVCM100000171f5a0aRCRD&vgnextoid=0a57899a90c7e210VgnVCM2000000c205a0aRCRD,CAMOENS Y VALERO,PASEO,V,4.0,MADRID,MADRID,28008.0,CASA DE CAMPO,MONCLOA-ARAVACA,438237.0,4475938.0,40.43179642724134,-3.728163489657703
5998633,Parque del Pueblo del Pardo,,Zonas infantiles Restaurante,"Bus: 601  Servicio Bicimad, para consultar la estación más cercana, acceda al mapa de geolocalización de las estaciones.",2,http://www.madrid.es/sites/v/index.jsp?vgnextchannel=bfa48ab43d6bb410VgnVCM100000171f5a0aRCRD&vgnextoid=857ccca4fb3ce210VgnVCM1000000b205a0aRCRD,GUARDIA,AVENIDA,V,4.0,MADRID,MADRID,28048.0,EL PARDO,FUENCARRAL-EL PARDO,434317.0,4485608.0,40.5186002228516,-3.775378753356757
6448176,Pinar Santa Eugenia,,No especificado,"Bus: 14, 58 RENFE: Santa Eugenia  Servicio Bicimad, para consultar la estación más cercana, acceda al mapa de geolocalización de las estaciones.",2,http://www.madrid.es/sites/v/index.jsp?vgnextchannel=bfa48ab43d6bb410VgnVCM100000171f5a0aRCRD&vgnextoid=64998aea9c297310VgnVCM1000000b205a0aRCRD,CERRO DE ALMODOVAR,CALLE,V,1.0,MADRID,MADRID,28031.0,CASCO H.VICALVARO,VICALVARO,448620.0,4470797.0,40.38619069883104,-3.605345456872275
10966448,Plaza Mayor de Barajas,,No especificado,"Metro: Línea 8 (Barajas)  Bus: 101  Servicio Bicimad, para consultar la estación más cercana, acceda al mapa de geolocalización de las estaciones.",2,http://www.madrid.es/sites/v/index.jsp?vgnextchannel=bfa48ab43d6bb410VgnVCM100000171f5a0aRCRD&vgnextoid=ee9654348a62b610VgnVCM2000001f4a900aRCRD,MAYOR DE BARAJAS,PLAZA,V,1.0,MADRID,MADRID,28042.0,CASCO H.BARAJAS,BARAJAS,451000.0,4480474.0,40.4735113714068,-3.57805132010274
10966289,Plaza de Murillo,,No especificado,"Metro: línea 1 (Atocha)  Bus: 10,14, 27, 34, 37, 45  Servicio Bicimad, para consultar la estación más cercana, acceda al mapa de geolocalización de las estaciones.",2,http://www.madrid.es/sites/v/index.jsp?vgnextchannel=bfa48ab43d6bb410VgnVCM100000171f5a0aRCRD&vgnextoid=36508ebbc762b610VgnVCM1000001d4a900aRCRD,MURILLO,PLAZA,V,1.0,MADRID,MADRID,28014.0,LOS JERONIMOS,RETIRO,441287.0,4473817.0,40.41290521872114,-3.692004931820884
10984411,Plaza de la Lealtad,,No especificado,"Metro: línea 1 (Atocha), línea 2 (Banco de España) Bus: 10, 14,27,34,37,45  Servicio Bicimad, para consultar la estación más cercana, acceda al mapa de geolocalización de las estaciones.",2,http://www.madrid.es/sites/v/index.jsp?vgnextchannel=bfa48ab43d6bb410VgnVCM100000171f5a0aRCRD&vgnextoid=2e429c2d91fcb610VgnVCM1000001d4a900aRCRD,PLAZA DE LA LEALTAD,JARDINES,T,63.42713567839196,MADRID,MADRID,28014.0,,RETIRO,441171.0,4474258.0,40.41687551533723,-3.6934169057776662
7642234,Quinta de Torre Arias,"Horario de apertura de martes a domingo (lunes cerrado, excepto festivos):  Del 1 de octubre al 31 de marzo de 10,00 a 17,30 horas. Del 1 de abril al 30 de septiembre de 08,00 a 20,30 horas.",No especificado,"Metro: Torre Arias (línea 5) Bus: 104, 77, 140, 153.  Servicio Bicimad, para consultar la estación más cercana, acceda al mapa de geolocalización de las estaciones.",2,http://www.madrid.es/sites/v/index.jsp?vgnextchannel=bfa48ab43d6bb410VgnVCM100000171f5a0aRCRD&vgnextoid=84c7277160d88410VgnVCM2000000c205a0aRCRD,ALCALA,CALLE,V,551.0,MADRID,MADRID,28027.0,EL SALVADOR,SAN BLAS-CANILLEJAS,447570.0,4477155.0,40.44338594570844,-3.618251375165413
6030568,Quinta de la Fuente del Berro,Del 1 de octubre al 31 de marzo de 6:30 a 22 horas. Del 1 de abril al 30 de septiembre de 6:30 a 24 horas.,No especificado,"Metro: O'Donnell (linea 6) Autobuses: 2, 56, 69, 71, 143, 15, 28  Servicio Bicimad, para consultar la estación más cercana, acceda al mapa de geolocalización de las estaciones.",2,http://www.madrid.es/sites/v/index.jsp?vgnextchannel=bfa48ab43d6bb410VgnVCM100000171f5a0aRCRD&vgnextoid=38d83bba7834f210VgnVCM2000000c205a0aRCRD,ENRIQUE D'ALMONTE,CALLE,V,1.0,MADRID,MADRID,28028.0,FUENTE DEL BERRO,SALAMANCA,443759.0,4474815.0,40.42299730556785,-3.662521363003179
6024739,Rosaleda de Madrid. Parque del Oeste,De 1 de noviembre a 1 de marzo: de 10:00 a 18:00 horas  De 1 de marzo a 15 de abril: de 10:00 a 19:00 horas De 16 de abril a 15 de septiembre: de 10:00 a 21:00 horas De 16 de septiembre a 31 de octubre: de 10:00 a 19:00 horas Los días de la celebración del Concurso Internacional de Rosas Nuevas Villa de Madrid permanecerá cerrada hasta las 15:00 horas.  Entrada gratuita,No especificado,"Transporte más próximo Bus: 41, 46, 75   También puedes acceder desde metro:   Arg&amp;uuml;elles   Príncipe Pío",2,http://www.madrid.es/sites/v/index.jsp?vgnextchannel=bfa48ab43d6bb410VgnVCM100000171f5a0aRCRD&vgnextoid=5fca4db4e702f210VgnVCM2000000c205a0aRCRD,ROSALEDA,CALLE,V,1.0,MADRID,MADRID,28008.0,CASA DE CAMPO,MONCLOA-ARAVACA,438729.0,4475328.0,40.42633204176242,-3.722298777408928
6028228,Vivero Estufas de El Retiro,Invierno de 7 a 23 horas. El acceso al público está gestionado a través de visitas guiadas en grupos organizados.,No especificado,"Metro: Atocha (línea 1), Ibiza (línea 9) Bus: 26, 63 , 152, C1, C2  Servicio Bicimad, para consultar la estación más cercana, acceda al mapa de geolocalización de las estaciones.",2,http://www.madrid.es/sites/v/index.jsp?vgnextchannel=bfa48ab43d6bb410VgnVCM100000171f5a0aRCRD&vgnextoid=00be21c051f2f210VgnVCM2000000c205a0aRCRD,ANGEL CAIDO,GLORIETA,V,4.0,MADRID,MADRID,28009.0,LOS JERONIMOS,RETIRO,442107.0,4473478.0,40.409899256936335,-3.682330548795712
6028009,Vivero de la Casa de Campo,Invierno de 8 a 15 horas Verano de 7 a 14 horas  El acceso al público está gestionado a través de visitas guiadas en grupos organizados.,No especificado,"Metro: Príncipe Pío (líneas 6 y 10 y ramal), Lago (línea 10)  Servicio Bicimad, para consultar la estación más cercana, acceda al mapa de geolocalización de las estaciones.",2,http://www.madrid.es/sites/v/index.jsp?vgnextchannel=bfa48ab43d6bb410VgnVCM100000171f5a0aRCRD&vgnextoid=735fc1076ce2f210VgnVCM2000000c205a0aRCRD,AZUL,PASEO,V,2.0,MADRID,MADRID,28011.0,CASA DE CAMPO,MONCLOA-ARAVACA,438182.0,4474613.0,40.41984158690351,-3.7286969080235455
6028007,Vivero municipal de Migas Calientes,De 8 a 15 horas.,No especificado,,0,http://www.madrid.es/sites/v/index.jsp?vgnextchannel=bfa48ab43d6bb410VgnVCM100000171f5a0aRCRD&vgnextoid=478dce6b78d2f210VgnVCM1000000b205a0aRCRD,M-30,AUTOVIA,T,2200.0,MADRID,MADRID,28040.0,CIUDAD UNIVERSITARIA,MONCLOA-ARAVACA,437249.0,4477453.0,40.445355536117184,-3.7399742609916697
6126515,Zona verde C/ Fresnedillas,,Zona de juegos infantiles Área de juegos para mayores Zonas de lectura Zona canina,,2,http://www.madrid.es/sites/v/index.jsp?vgnextchannel=bfa48ab43d6bb410VgnVCM100000171f5a0aRCRD&vgnextoid=f14f301932811310VgnVCM1000000b205a0aRCRD,FRESNEDILLAS,CALLE,V,1.0,MADRID,MADRID,28035.0,FUENTELARREINA,FUENCARRAL-EL PARDO,437021.0,4480996.0,40.47726387147517,-3.743002516228519
6007791,Área Forestal de Tres Cantos,,No especificado,,2,http://www.madrid.es/sites/v/index.jsp?vgnextchannel=bfa48ab43d6bb410VgnVCM100000171f5a0aRCRD&vgnextoid=1e50dc39b9dde210VgnVCM2000000c205a0aRCRD,M-607,CARRETERA,T,2100.0,MADRID,MADRID,28049.0,EL PARDO,FUENCARRAL-EL PARDO,440299.0,4492636.0,40.582362517713584,-3.7054314643264954
